{
 "cells": [
  {
   "cell_type": "code",
   "execution_count": 1,
   "metadata": {},
   "outputs": [],
   "source": [
    "import os.path\n",
    "import logging\n",
    "import numpy as np\n",
    "import pandas as pd\n",
    "import sqlite3\n",
    "\n",
    "import metar_tools\n",
    "import taf_tools\n",
    "#import misc_tools\n",
    "\n",
    "data_yrs = list(range(2011, 2021+1))"
   ]
  },
  {
   "cell_type": "code",
   "execution_count": 2,
   "metadata": {},
   "outputs": [
    {
     "data": {
      "text/html": [
       "<div>\n",
       "<style scoped>\n",
       "    .dataframe tbody tr th:only-of-type {\n",
       "        vertical-align: middle;\n",
       "    }\n",
       "\n",
       "    .dataframe tbody tr th {\n",
       "        vertical-align: top;\n",
       "    }\n",
       "\n",
       "    .dataframe thead th {\n",
       "        text-align: right;\n",
       "    }\n",
       "</style>\n",
       "<table border=\"1\" class=\"dataframe\">\n",
       "  <thead>\n",
       "    <tr style=\"text-align: right;\">\n",
       "      <th></th>\n",
       "      <th>fid</th>\n",
       "      <th>Tukikohta</th>\n",
       "      <th>Kuvaus</th>\n",
       "      <th>distance</th>\n",
       "      <th>Sector</th>\n",
       "      <th>dep_dest</th>\n",
       "      <th>alt_open</th>\n",
       "      <th>sect_wx</th>\n",
       "      <th>alt_all</th>\n",
       "      <th>ASEMA</th>\n",
       "      <th>luokka</th>\n",
       "      <th>ELEV_FT</th>\n",
       "      <th>ruutu_id</th>\n",
       "      <th>min_ifr_ft</th>\n",
       "      <th>GND_max</th>\n",
       "      <th>cld_ceiling</th>\n",
       "    </tr>\n",
       "    <tr>\n",
       "      <th>Sector_no</th>\n",
       "      <th></th>\n",
       "      <th></th>\n",
       "      <th></th>\n",
       "      <th></th>\n",
       "      <th></th>\n",
       "      <th></th>\n",
       "      <th></th>\n",
       "      <th></th>\n",
       "      <th></th>\n",
       "      <th></th>\n",
       "      <th></th>\n",
       "      <th></th>\n",
       "      <th></th>\n",
       "      <th></th>\n",
       "      <th></th>\n",
       "      <th></th>\n",
       "    </tr>\n",
       "  </thead>\n",
       "  <tbody>\n",
       "    <tr>\n",
       "      <th>FH40.5</th>\n",
       "      <td>6</td>\n",
       "      <td>FH40</td>\n",
       "      <td>Seinäjoen tukikohta (arvio)</td>\n",
       "      <td>100000</td>\n",
       "      <td>5</td>\n",
       "      <td>EFSI</td>\n",
       "      <td>EFTP;EFJY</td>\n",
       "      <td>ILXN</td>\n",
       "      <td>EFVA;EFKK;EFHA;EFPO;EFTP;EFJY</td>\n",
       "      <td>Kankaanpää Niinisalo lentokenttä</td>\n",
       "      <td>AWS-asema</td>\n",
       "      <td>404</td>\n",
       "      <td>22-61.5</td>\n",
       "      <td>2100</td>\n",
       "      <td>153.632996</td>\n",
       "      <td>1700</td>\n",
       "    </tr>\n",
       "    <tr>\n",
       "      <th>FH20.3</th>\n",
       "      <td>8</td>\n",
       "      <td>FH20</td>\n",
       "      <td>Turun lentoasema</td>\n",
       "      <td>100000</td>\n",
       "      <td>3</td>\n",
       "      <td>EFTU</td>\n",
       "      <td>EFTP;EFHK</td>\n",
       "      <td>ILIK</td>\n",
       "      <td>EFPO;EFTP;EFMA;EFHK;EFHA;EFSI</td>\n",
       "      <td>Salo Kiikala lentokenttä</td>\n",
       "      <td>AWS-asema</td>\n",
       "      <td>384</td>\n",
       "      <td>23.5-60</td>\n",
       "      <td>2000</td>\n",
       "      <td>164.514999</td>\n",
       "      <td>1600</td>\n",
       "    </tr>\n",
       "    <tr>\n",
       "      <th>FH20.5</th>\n",
       "      <td>9</td>\n",
       "      <td>FH20</td>\n",
       "      <td>Turun lentoasema</td>\n",
       "      <td>100000</td>\n",
       "      <td>5</td>\n",
       "      <td>EFTU</td>\n",
       "      <td>EFTP;EFHK</td>\n",
       "      <td>ILZU</td>\n",
       "      <td>EFPO;EFTP;EFMA;EFHK;EFHA;EFSI</td>\n",
       "      <td>Parainen Utö</td>\n",
       "      <td>AWS-asema</td>\n",
       "      <td>20</td>\n",
       "      <td>21-59.5</td>\n",
       "      <td>1400</td>\n",
       "      <td>21.108000</td>\n",
       "      <td>1400</td>\n",
       "    </tr>\n",
       "    <tr>\n",
       "      <th>FH20.8</th>\n",
       "      <td>10</td>\n",
       "      <td>FH20</td>\n",
       "      <td>Turun lentoasema</td>\n",
       "      <td>100000</td>\n",
       "      <td>8</td>\n",
       "      <td>EFTU</td>\n",
       "      <td>EFTP;EFHK</td>\n",
       "      <td>ILXF</td>\n",
       "      <td>EFPO;EFTP;EFMA;EFHK;EFHA;EFSI</td>\n",
       "      <td>Rauma Kylmäpihlaja</td>\n",
       "      <td>AWS-asema</td>\n",
       "      <td>13</td>\n",
       "      <td>21-61</td>\n",
       "      <td>1700</td>\n",
       "      <td>35.522999</td>\n",
       "      <td>1700</td>\n",
       "    </tr>\n",
       "    <tr>\n",
       "      <th>FH20.7</th>\n",
       "      <td>11</td>\n",
       "      <td>FH20</td>\n",
       "      <td>Turun lentoasema</td>\n",
       "      <td>100000</td>\n",
       "      <td>7</td>\n",
       "      <td>EFTU</td>\n",
       "      <td>EFTP;EFHK</td>\n",
       "      <td>ILZI</td>\n",
       "      <td>EFPO;EFTP;EFMA;EFHK;EFHA;EFSI</td>\n",
       "      <td>Kustavi Isokari</td>\n",
       "      <td>AWS-asema</td>\n",
       "      <td>16</td>\n",
       "      <td>21-60.5</td>\n",
       "      <td>1700</td>\n",
       "      <td>47.653999</td>\n",
       "      <td>1700</td>\n",
       "    </tr>\n",
       "    <tr>\n",
       "      <th>...</th>\n",
       "      <td>...</td>\n",
       "      <td>...</td>\n",
       "      <td>...</td>\n",
       "      <td>...</td>\n",
       "      <td>...</td>\n",
       "      <td>...</td>\n",
       "      <td>...</td>\n",
       "      <td>...</td>\n",
       "      <td>...</td>\n",
       "      <td>...</td>\n",
       "      <td>...</td>\n",
       "      <td>...</td>\n",
       "      <td>...</td>\n",
       "      <td>...</td>\n",
       "      <td>...</td>\n",
       "      <td>...</td>\n",
       "    </tr>\n",
       "    <tr>\n",
       "      <th>FH60_1.2</th>\n",
       "      <td>171</td>\n",
       "      <td>FH60</td>\n",
       "      <td>Kelloniemi, Kuopion tukikohta</td>\n",
       "      <td>100000</td>\n",
       "      <td>2</td>\n",
       "      <td>EFKU</td>\n",
       "      <td>EFJY;EFTP</td>\n",
       "      <td>ILXR</td>\n",
       "      <td>EFJO;EFJY;EFSA;EFMI;EFKI;EFHA</td>\n",
       "      <td>Rautavaara Ylä-Luosta</td>\n",
       "      <td>AWS-asema</td>\n",
       "      <td>538</td>\n",
       "      <td>28.5-63</td>\n",
       "      <td>2300</td>\n",
       "      <td>292.751007</td>\n",
       "      <td>1800</td>\n",
       "    </tr>\n",
       "    <tr>\n",
       "      <th>FH60_1.4</th>\n",
       "      <td>172</td>\n",
       "      <td>FH60</td>\n",
       "      <td>Kelloniemi, Kuopion tukikohta</td>\n",
       "      <td>100000</td>\n",
       "      <td>4</td>\n",
       "      <td>EFKU</td>\n",
       "      <td>EFJY;EFTP</td>\n",
       "      <td>ILXC</td>\n",
       "      <td>EFJO;EFJY;EFSA;EFMI;EFKI;EFHA</td>\n",
       "      <td>Varkaus Kosulanniemi</td>\n",
       "      <td>AWS-asema</td>\n",
       "      <td>272</td>\n",
       "      <td>27.5-62</td>\n",
       "      <td>2200</td>\n",
       "      <td>199.429001</td>\n",
       "      <td>1900</td>\n",
       "    </tr>\n",
       "    <tr>\n",
       "      <th>FH60_2.8</th>\n",
       "      <td>173</td>\n",
       "      <td>FH60_level2</td>\n",
       "      <td>Kelloniemi, Kuopion tukikohta</td>\n",
       "      <td>150000</td>\n",
       "      <td>8</td>\n",
       "      <td>EFKU</td>\n",
       "      <td>EFJY;EFTP</td>\n",
       "      <td>ILQY</td>\n",
       "      <td>EFJO;EFJY;EFSA;EFMI;EFKI;EFHA</td>\n",
       "      <td>Vaala Pelso</td>\n",
       "      <td>AWS-asema</td>\n",
       "      <td>371</td>\n",
       "      <td>26-64.5</td>\n",
       "      <td>1900</td>\n",
       "      <td>194.817001</td>\n",
       "      <td>1500</td>\n",
       "    </tr>\n",
       "    <tr>\n",
       "      <th>FH60_2.7</th>\n",
       "      <td>174</td>\n",
       "      <td>FH60_level2</td>\n",
       "      <td>Kelloniemi, Kuopion tukikohta</td>\n",
       "      <td>150000</td>\n",
       "      <td>7</td>\n",
       "      <td>EFKU</td>\n",
       "      <td>EFJY;EFTP</td>\n",
       "      <td>ILXL</td>\n",
       "      <td>EFJO;EFJY;EFSA;EFMI;EFKI;EFHA</td>\n",
       "      <td>Alajärvi Möksy</td>\n",
       "      <td>AWS-asema</td>\n",
       "      <td>561</td>\n",
       "      <td>24-63</td>\n",
       "      <td>2500</td>\n",
       "      <td>208.264999</td>\n",
       "      <td>1900</td>\n",
       "    </tr>\n",
       "    <tr>\n",
       "      <th>FH20.1</th>\n",
       "      <td>176</td>\n",
       "      <td>FH20</td>\n",
       "      <td>Turun lentoasema</td>\n",
       "      <td>100000</td>\n",
       "      <td>2</td>\n",
       "      <td>EFTU</td>\n",
       "      <td>EFTP;EFHK</td>\n",
       "      <td>ILZP</td>\n",
       "      <td>EFPO;EFTP;EFMA;EFHK;EFHA;EFSI</td>\n",
       "      <td>Kokemäki Tulkkila</td>\n",
       "      <td>AWS-asema</td>\n",
       "      <td>125</td>\n",
       "      <td>22-61</td>\n",
       "      <td>1700</td>\n",
       "      <td>124.964996</td>\n",
       "      <td>1600</td>\n",
       "    </tr>\n",
       "  </tbody>\n",
       "</table>\n",
       "<p>96 rows × 16 columns</p>\n",
       "</div>"
      ],
      "text/plain": [
       "           fid    Tukikohta                         Kuvaus  distance  Sector  \\\n",
       "Sector_no                                                                      \n",
       "FH40.5       6         FH40    Seinäjoen tukikohta (arvio)    100000       5   \n",
       "FH20.3       8         FH20               Turun lentoasema    100000       3   \n",
       "FH20.5       9         FH20               Turun lentoasema    100000       5   \n",
       "FH20.8      10         FH20               Turun lentoasema    100000       8   \n",
       "FH20.7      11         FH20               Turun lentoasema    100000       7   \n",
       "...        ...          ...                            ...       ...     ...   \n",
       "FH60_1.2   171         FH60  Kelloniemi, Kuopion tukikohta    100000       2   \n",
       "FH60_1.4   172         FH60  Kelloniemi, Kuopion tukikohta    100000       4   \n",
       "FH60_2.8   173  FH60_level2  Kelloniemi, Kuopion tukikohta    150000       8   \n",
       "FH60_2.7   174  FH60_level2  Kelloniemi, Kuopion tukikohta    150000       7   \n",
       "FH20.1     176         FH20               Turun lentoasema    100000       2   \n",
       "\n",
       "          dep_dest   alt_open sect_wx                        alt_all  \\\n",
       "Sector_no                                                              \n",
       "FH40.5        EFSI  EFTP;EFJY    ILXN  EFVA;EFKK;EFHA;EFPO;EFTP;EFJY   \n",
       "FH20.3        EFTU  EFTP;EFHK    ILIK  EFPO;EFTP;EFMA;EFHK;EFHA;EFSI   \n",
       "FH20.5        EFTU  EFTP;EFHK    ILZU  EFPO;EFTP;EFMA;EFHK;EFHA;EFSI   \n",
       "FH20.8        EFTU  EFTP;EFHK    ILXF  EFPO;EFTP;EFMA;EFHK;EFHA;EFSI   \n",
       "FH20.7        EFTU  EFTP;EFHK    ILZI  EFPO;EFTP;EFMA;EFHK;EFHA;EFSI   \n",
       "...            ...        ...     ...                            ...   \n",
       "FH60_1.2      EFKU  EFJY;EFTP    ILXR  EFJO;EFJY;EFSA;EFMI;EFKI;EFHA   \n",
       "FH60_1.4      EFKU  EFJY;EFTP    ILXC  EFJO;EFJY;EFSA;EFMI;EFKI;EFHA   \n",
       "FH60_2.8      EFKU  EFJY;EFTP    ILQY  EFJO;EFJY;EFSA;EFMI;EFKI;EFHA   \n",
       "FH60_2.7      EFKU  EFJY;EFTP    ILXL  EFJO;EFJY;EFSA;EFMI;EFKI;EFHA   \n",
       "FH20.1        EFTU  EFTP;EFHK    ILZP  EFPO;EFTP;EFMA;EFHK;EFHA;EFSI   \n",
       "\n",
       "                                      ASEMA     luokka  ELEV_FT ruutu_id  \\\n",
       "Sector_no                                                                  \n",
       "FH40.5     Kankaanpää Niinisalo lentokenttä  AWS-asema      404  22-61.5   \n",
       "FH20.3             Salo Kiikala lentokenttä  AWS-asema      384  23.5-60   \n",
       "FH20.5                         Parainen Utö  AWS-asema       20  21-59.5   \n",
       "FH20.8                   Rauma Kylmäpihlaja  AWS-asema       13    21-61   \n",
       "FH20.7                      Kustavi Isokari  AWS-asema       16  21-60.5   \n",
       "...                                     ...        ...      ...      ...   \n",
       "FH60_1.2              Rautavaara Ylä-Luosta  AWS-asema      538  28.5-63   \n",
       "FH60_1.4               Varkaus Kosulanniemi  AWS-asema      272  27.5-62   \n",
       "FH60_2.8                        Vaala Pelso  AWS-asema      371  26-64.5   \n",
       "FH60_2.7                     Alajärvi Möksy  AWS-asema      561    24-63   \n",
       "FH20.1                    Kokemäki Tulkkila  AWS-asema      125    22-61   \n",
       "\n",
       "           min_ifr_ft     GND_max  cld_ceiling  \n",
       "Sector_no                                       \n",
       "FH40.5           2100  153.632996         1700  \n",
       "FH20.3           2000  164.514999         1600  \n",
       "FH20.5           1400   21.108000         1400  \n",
       "FH20.8           1700   35.522999         1700  \n",
       "FH20.7           1700   47.653999         1700  \n",
       "...               ...         ...          ...  \n",
       "FH60_1.2         2300  292.751007         1800  \n",
       "FH60_1.4         2200  199.429001         1900  \n",
       "FH60_2.8         1900  194.817001         1500  \n",
       "FH60_2.7         2500  208.264999         1900  \n",
       "FH20.1           1700  124.964996         1600  \n",
       "\n",
       "[96 rows x 16 columns]"
      ]
     },
     "execution_count": 2,
     "metadata": {},
     "output_type": "execute_result"
    }
   ],
   "source": [
    "sect_df = pd.read_csv('data/FH-base_sektorit.csv', sep=',', index_col='Sector_no')\n",
    "sect_df"
   ]
  },
  {
   "cell_type": "code",
   "execution_count": 3,
   "metadata": {},
   "outputs": [
    {
     "data": {
      "text/plain": [
       "24.95675"
      ]
     },
     "execution_count": 3,
     "metadata": {},
     "output_type": "execute_result"
    }
   ],
   "source": [
    "geo_df = pd.read_csv('data/Saahavaintoasemat.csv', sep=',', index_col='ICAO')\n",
    "geo_df.loc['EFHK','LON']"
   ]
  },
  {
   "cell_type": "code",
   "execution_count": 4,
   "metadata": {},
   "outputs": [],
   "source": [
    "sector = sect_df.loc['FH10.2',] # Loviisan suuntaan\n",
    "term = sector['dep_dest']\n",
    "sect_wx = sector['sect_wx']"
   ]
  },
  {
   "cell_type": "code",
   "execution_count": 5,
   "metadata": {},
   "outputs": [],
   "source": [
    "def load_metar_chunk(icao_code, year):\n",
    "    cols = ['ttime', 'content']\n",
    "    df = pd.read_csv(f'data/metar/{icao_code}_{year}_METAR.dat', sep=';', usecols=cols)\n",
    "    df['time'] = pd.to_datetime(df['ttime'])\n",
    "    return df.set_index('time')"
   ]
  },
  {
   "cell_type": "code",
   "execution_count": 6,
   "metadata": {},
   "outputs": [],
   "source": [
    "def find_first_file(icao_code, type):\n",
    "    for i, year in enumerate(data_yrs):\n",
    "        if os.path.isfile(f'data/{type.lower()}/{icao_code}_{year}_{type}.dat'):\n",
    "            return i\n",
    "        logging.info(f'No {type} file for {icao_code} in year {year}.')\n",
    "    raise RuntimeError(\"No data found\")"
   ]
  },
  {
   "cell_type": "code",
   "execution_count": 7,
   "metadata": {},
   "outputs": [],
   "source": [
    "def load_metar(icao_code):\n",
    "    i = find_first_file(icao_code, 'METAR')\n",
    "    metar = load_metar_chunk(icao_code, data_yrs[i])\n",
    "    for year in data_yrs[i+1:]:\n",
    "        try:\n",
    "            df = load_metar_chunk(icao_code, year)\n",
    "        except:\n",
    "            logging.info(f'No METAR file for {icao_code} in year {year}.')\n",
    "        metar = pd.concat((metar, df))\n",
    "    return metar"
   ]
  },
  {
   "cell_type": "code",
   "execution_count": 8,
   "metadata": {},
   "outputs": [],
   "source": [
    "def load_taf_chunk(icao_code, year):\n",
    "    cols = ['ttime', 'content']\n",
    "    df = pd.read_csv(f'data/taf/{icao_code}_{year}_TAF.dat', sep=';', usecols=cols)\n",
    "    df['time'] = pd.to_datetime(df['ttime'])\n",
    "    df.set_index('time', inplace=True)\n",
    "    return df"
   ]
  },
  {
   "cell_type": "code",
   "execution_count": 9,
   "metadata": {},
   "outputs": [],
   "source": [
    "def load_taf(icao_code):\n",
    "    i = find_first_file(icao_code, 'TAF')\n",
    "    taf = load_taf_chunk(icao_code, data_yrs[i])\n",
    "    for year in data_yrs[i+1:]:\n",
    "        try:\n",
    "            df = load_taf_chunk(icao_code, year)\n",
    "        except:\n",
    "            logging.info(f'No TAF file for {icao_code} in year {year}.')\n",
    "        taf = pd.concat((taf, df))\n",
    "    taf = taf.asfreq('10min')\n",
    "    ffill_limit = 200 # don't fill super long gaps. TAF time rolls over in a month,\n",
    "                      # max validity 30 h so anything between 30 h and 1 month goes.\n",
    "    taf['ttime'] = taf.index.strftime('%Y-%m-%d %H:%M:%S')\n",
    "    taf['content'] = taf['content'].ffill(limit=ffill_limit)\n",
    "    return taf.dropna()"
   ]
  },
  {
   "cell_type": "code",
   "execution_count": 10,
   "metadata": {},
   "outputs": [],
   "source": [
    "# def _load_sector(name, sector_metadata):\n",
    "#     metar_term = load_metar(sector_metadata.loc[name,'dep_dest'])\n",
    "#     taf_term = load_taf(sector_metadata.loc[name,'dep_dest'])\n",
    "#     metar_sect = load_metar(sector_metadata.loc[name,'sect_wx'])\n",
    "#     return metar_term, taf_term, metar_sect"
   ]
  },
  {
   "cell_type": "code",
   "execution_count": 11,
   "metadata": {},
   "outputs": [],
   "source": [
    "def extract_taf(data: np.ndarray):\n",
    "    time_str = data[0]\n",
    "    taf_str = data[1]\n",
    "    forecast = taf_tools.parse(taf_str)\n",
    "    icao = forecast.station\n",
    "    vis = taf_tools.get_worstcase_vis(forecast, time_str, 3)\n",
    "    return (icao, time_str, vis, taf_str)"
   ]
  },
  {
   "cell_type": "code",
   "execution_count": 12,
   "metadata": {},
   "outputs": [],
   "source": [
    "def extract_metar(data: np.ndarray):\n",
    "    time_str = data[0]\n",
    "    metar_str = data[1]\n",
    "    obs = metar_tools.parse(metar_str)\n",
    "    temp = metar_tools.get_temp(obs)\n",
    "    vis = metar_tools.get_vis(obs)\n",
    "    rvr = metar_tools.get_rvr(obs)\n",
    "    ceil = metar_tools.get_ceil(obs)\n",
    "    base = metar_tools.get_base(obs, ceil)\n",
    "    icao = metar_tools.get_icao(obs)\n",
    "    night = misc_tools.is_night(time_str, geo_df.loc[icao,'LAT'], geo_df.loc[icao,'LON'])\n",
    "    return (icao, time_str, temp, vis, rvr, ceil, base, night, metar_str)"
   ]
  },
  {
   "cell_type": "code",
   "execution_count": 13,
   "metadata": {},
   "outputs": [],
   "source": [
    "# def transform_wx(metar_term, taf_term, metar_sect):\n",
    "#     logging.info(\"Transforming terminal METAR\")\n",
    "#     metar_term_transformed = [extract_metar(d) for d in zip(metar_term.ttime, metar_term.content)]\n",
    "#     logging.info(\"Transforming terminal TAF\")\n",
    "#     taf_term_transformed = [extract_taf(d) for d in zip(taf_term.ttime, taf_term.content)]\n",
    "#     logging.info(\"Transforming sector METAR\")\n",
    "#     metar_sect_transformed = [extract_metar(d) for d in zip(metar_sect.ttime, metar_sect.content)]\n",
    "\n",
    "#     metar_cols = ['icao', 'time', 'temp', 'vis', 'rvr', 'ceil', 'base', 'night', 'metar_msg']\n",
    "#     metar_term = pd.DataFrame(metar_term_transformed, columns=metar_cols)\n",
    "#     metar_term['time'] = pd.to_datetime(metar_term['time'])\n",
    "#     metar_term.set_index('time', inplace=True)\n",
    "\n",
    "#     metar_sect = pd.DataFrame(metar_sect_transformed, columns=metar_cols)\n",
    "#     metar_sect['time'] = pd.to_datetime(metar_sect['time'])\n",
    "#     metar_sect.set_index('time', inplace=True)\n",
    "\n",
    "#     taf_cols = ['icao', 'time', 'taf_vis', 'taf_msg']\n",
    "#     taf_term = pd.DataFrame(taf_term_transformed, columns=taf_cols)\n",
    "#     taf_term['time'] = pd.to_datetime(taf_term['time'])\n",
    "#     taf_term.set_index('time', inplace=True)\n",
    "\n",
    "#     return metar_term, taf_term, metar_sect"
   ]
  },
  {
   "cell_type": "code",
   "execution_count": 14,
   "metadata": {},
   "outputs": [],
   "source": [
    "def transform_metar(metar):\n",
    "    metar_cols = ['icao', 'time', 'temp', 'vis', 'rvr', 'ceil', 'base', 'night', 'metar_msg']\n",
    "    metar_trans = [extract_metar(d) for d in zip(metar.ttime, metar.content)]\n",
    "    df = pd.DataFrame(metar_trans, columns=metar_cols)\n",
    "    #df['time'] = pd.to_datetime(df['time'])\n",
    "    #df.set_index('time', inplace=True)\n",
    "    return df"
   ]
  },
  {
   "cell_type": "code",
   "execution_count": 15,
   "metadata": {},
   "outputs": [],
   "source": [
    "def transform_taf(taf):\n",
    "    taf_cols = ['icao', 'time', 'taf_vis', 'taf_msg']\n",
    "    taf_trans = [extract_taf(d) for d in zip(taf.ttime, taf.content)]\n",
    "    df = pd.DataFrame(taf_trans, columns=taf_cols)\n",
    "    #df['time'] = pd.to_datetime(df['time'])\n",
    "    #df.set_index('time', inplace=True)\n",
    "    return df"
   ]
  },
  {
   "cell_type": "code",
   "execution_count": 16,
   "metadata": {},
   "outputs": [],
   "source": [
    "#def merge_wx(metar_term, taf_term, metar_sect):\n",
    "#    df = metar_term.join(taf_term, how='inner')\n",
    "#    df = df.join(metar_sect, how='left', lsuffix='_term', rsuffix='_sect')\n",
    "#    df.drop(columns=['night_term', 'rvr_sect'], inplace=True)\n",
    "#    df.rename(columns={'night_sect': 'night'}, inplace=True)\n",
    "#    return df"
   ]
  },
  {
   "cell_type": "code",
   "execution_count": 17,
   "metadata": {},
   "outputs": [],
   "source": [
    "# def load_sector(name, sector_metadata):\n",
    "#     metar_term, taf_term, metar_sect = _load_sector(name, sector_metadata)\n",
    "#     metar_term, taf_term, metar_sect = transform_wx(metar_term, taf_term, metar_sect)\n",
    "#     #df = merge_wx(metar_term, taf_term, metar_sect)\n",
    "#     return metar_term, taf_term, metar_sect"
   ]
  },
  {
   "cell_type": "code",
   "execution_count": 18,
   "metadata": {},
   "outputs": [],
   "source": [
    "def load_station(icao):\n",
    "    metar = load_metar(icao)\n",
    "    metar = transform_metar(metar)\n",
    "    taf = load_taf(icao)\n",
    "    taf = transform_taf(taf)\n",
    "    return metar, taf"
   ]
  },
  {
   "cell_type": "code",
   "execution_count": 19,
   "metadata": {},
   "outputs": [
    {
     "name": "stderr",
     "output_type": "stream",
     "text": [
      "C:\\Users\\makes\\miniconda3\\envs\\hems\\lib\\site-packages\\metar\\Metar.py:502: RuntimeWarning: Unparsed groups in body '04319//44' while processing 'EFHK 081020Z 18007KT 9999 BKN004 M02/M02 Q1015 04319//44 5439//36 BECMG BKN005='\n",
      "  warnings.warn(message, RuntimeWarning)\n",
      "C:\\Users\\makes\\miniconda3\\envs\\hems\\lib\\site-packages\\metar\\Metar.py:502: RuntimeWarning: Unparsed groups in body '04319//44' while processing 'EFHK 081050Z 18005KT 120V200 9999 BKN005 M01/M02 Q1015 04319//44 5439//36 NOSIG='\n",
      "  warnings.warn(message, RuntimeWarning)\n",
      "C:\\Users\\makes\\miniconda3\\envs\\hems\\lib\\site-packages\\metar\\Metar.py:502: RuntimeWarning: Unparsed groups in body '04319//44' while processing 'EFHK 081120Z 17005KT 9999 SCT005 BKN006 M01/M02 Q1015 04319//44 5439//36 TEMPO BKN010='\n",
      "  warnings.warn(message, RuntimeWarning)\n",
      "C:\\Users\\makes\\miniconda3\\envs\\hems\\lib\\site-packages\\metar\\Metar.py:502: RuntimeWarning: Unparsed groups in body '154490194' while processing 'EFHK 221020Z 16005KT 3000 -SN BKN007 BKN011 M05/M06 Q1016 04490193 154490194 BECMG 6000='\n",
      "  warnings.warn(message, RuntimeWarning)\n",
      "C:\\Users\\makes\\miniconda3\\envs\\hems\\lib\\site-packages\\metar\\Metar.py:502: RuntimeWarning: Unparsed groups in body '2500' while processing 'EFHK 102150Z 15020G31KT 1100 R04R/P1500N R15/1100VP1500U R22L/P1500N R04L/P1500N SN FEW004 BKN005 00/M01 Q0996 15690195 BECMG -SN 2500='\n",
      "  warnings.warn(message, RuntimeWarning)\n",
      "C:\\Users\\makes\\miniconda3\\envs\\hems\\lib\\site-packages\\metar\\Metar.py:502: RuntimeWarning: Unparsed groups in body '4000' while processing 'EFHK 102220Z 15018KT 1500 SN FEW004 BKN005 00/M01 Q0995 15690195 BECMG -SN 4000='\n",
      "  warnings.warn(message, RuntimeWarning)\n",
      "C:\\Users\\makes\\miniconda3\\envs\\hems\\lib\\site-packages\\metar\\Metar.py:502: RuntimeWarning: Unparsed groups in body 'WS LDG' while processing 'EFHK 241220Z 29023G34KT 9999 VCSH FEW040CB SCT060 01/M12 Q1002 WS LDG RWY33 0429//65 5429//95 1529//95 NOSIG='\n",
      "  warnings.warn(message, RuntimeWarning)\n",
      "C:\\Users\\makes\\miniconda3\\envs\\hems\\lib\\site-packages\\metar\\Metar.py:502: RuntimeWarning: Unparsed groups in body 'WS LDG' while processing 'EFHK 241250Z 29024KT 9999 VCSH FEW040CB SCT060 01/M11 Q1002 WS LDG RWY33 0429//65 5429//95 1529//95 NOSIG='\n",
      "  warnings.warn(message, RuntimeWarning)\n",
      "C:\\Users\\makes\\miniconda3\\envs\\hems\\lib\\site-packages\\metar\\Metar.py:502: RuntimeWarning: Unparsed groups in body 'WS LDG' while processing 'EFHK 241320Z 29022G32KT 9999 VCSH FEW040CB SCT060 M01/M09 Q1002 WS LDG RWY33 0429//65 5429//95 1529//95 NOSIG='\n",
      "  warnings.warn(message, RuntimeWarning)\n",
      "C:\\Users\\makes\\miniconda3\\envs\\hems\\lib\\site-packages\\metar\\Metar.py:502: RuntimeWarning: Unparsed groups in body 'WS LDG' while processing 'EFHK 241350Z 29024KT 9999 VCSH FEW040CB SCT060 M00/M11 Q1002 WS LDG RWY33 0429//65 5429//95 1529//95 NOSIG='\n",
      "  warnings.warn(message, RuntimeWarning)\n",
      "C:\\Users\\makes\\miniconda3\\envs\\hems\\lib\\site-packages\\metar\\Metar.py:502: RuntimeWarning: Unparsed groups in body 'WS LDG' while processing 'EFHK 241420Z 29022G33KT 9999 SCT040 M00/M12 Q1003 WS LDG RWY33 0429//65 5429//95 1529//95 NOSIG='\n",
      "  warnings.warn(message, RuntimeWarning)\n",
      "C:\\Users\\makes\\miniconda3\\envs\\hems\\lib\\site-packages\\metar\\Metar.py:502: RuntimeWarning: Unparsed groups in body 'WS LDG' while processing 'EFHK 241450Z 29022KT 9999 FEW040 M01/M12 Q1003 WS LDG RWY33 0429//65 5429//95 1529//95 NOSIG='\n",
      "  warnings.warn(message, RuntimeWarning)\n",
      "C:\\Users\\makes\\miniconda3\\envs\\hems\\lib\\site-packages\\metar\\Metar.py:502: RuntimeWarning: Unparsed groups in body 'WS LDG' while processing 'EFHK 241520Z 29020KT 9999 FEW040 M00/M12 Q1003 WS LDG RWY33 0429//65 5429//95 1529//95 NOSIG='\n",
      "  warnings.warn(message, RuntimeWarning)\n",
      "C:\\Users\\makes\\miniconda3\\envs\\hems\\lib\\site-packages\\metar\\Metar.py:502: RuntimeWarning: Unparsed groups in body 'WS LDG' while processing 'EFHK 241550Z 29017KT 9999 FEW040 M01/M13 Q1003 WS LDG RWY33 0429//39 5419//95 1519//56 NOSIG='\n",
      "  warnings.warn(message, RuntimeWarning)\n",
      "C:\\Users\\makes\\miniconda3\\envs\\hems\\lib\\site-packages\\metar\\Metar.py:502: RuntimeWarning: Unparsed groups in body 'WS LDG' while processing 'EFHK 241620Z 29018G29KT 9999 FEW040 M01/M13 Q1004 WS LDG RWY33 0419//39 5419//95 1519//56 NOSIG='\n",
      "  warnings.warn(message, RuntimeWarning)\n",
      "C:\\Users\\makes\\miniconda3\\envs\\hems\\lib\\site-packages\\metar\\Metar.py:502: RuntimeWarning: Unparsed groups in body 'WS LDG' while processing 'EFHK 241650Z 29018KT 9999 FEW040 M01/M13 Q1004 WS LDG RWY33 0419//39 5419//95 1519//56 NOSIG='\n",
      "  warnings.warn(message, RuntimeWarning)\n",
      "C:\\Users\\makes\\miniconda3\\envs\\hems\\lib\\site-packages\\metar\\Metar.py:502: RuntimeWarning: Unparsed groups in body 'NSW' while processing 'EFHK 300750Z 19016KT 5000 SHRA FEW002 BKN004 10/09 Q1008 BECMG 9999 BKN007 NSW='\n",
      "  warnings.warn(message, RuntimeWarning)\n",
      "C:\\Users\\makes\\miniconda3\\envs\\hems\\lib\\site-packages\\metar\\Metar.py:502: RuntimeWarning: Unparsed groups in body 'WS LDG' while processing 'EFHK 071050Z 13013KT 9999 FEW048 26/13 Q1014 WS LDG RWY22 NOSIG='\n",
      "  warnings.warn(message, RuntimeWarning)\n",
      "C:\\Users\\makes\\miniconda3\\envs\\hems\\lib\\site-packages\\metar\\Metar.py:502: RuntimeWarning: Unparsed groups in body 'FM1100' while processing 'EFHK 251020Z VRB03KT 9999 SCT015 FEW030CB BKN075 17/10 Q1010 TEMPO SHRA FM1100='\n",
      "  warnings.warn(message, RuntimeWarning)\n",
      "C:\\Users\\makes\\miniconda3\\envs\\hems\\lib\\site-packages\\metar\\Metar.py:502: RuntimeWarning: Unparsed groups in body 'FM1100' while processing 'EFHK 251050Z 26005KT 210V310 9999 VCSH SCT018 FEW030CB BKN075 16/12 Q1010 TEMPO SHRA FM1100='\n",
      "  warnings.warn(message, RuntimeWarning)\n",
      "C:\\Users\\makes\\miniconda3\\envs\\hems\\lib\\site-packages\\metar\\Metar.py:502: RuntimeWarning: Unparsed groups in body 'FM1500' while processing 'EFHK 111420Z VRB03KT 9999 VCSH FEW030 FEW040CB BKN085 17/09 Q1005 TEMPO 7000 SHRA FM1500='\n",
      "  warnings.warn(message, RuntimeWarning)\n",
      "C:\\Users\\makes\\miniconda3\\envs\\hems\\lib\\site-packages\\metar\\Metar.py:502: RuntimeWarning: Unparsed groups in body 'SNRA' while processing 'EFHK 092050Z 14019KT 3000 -SNRA FEW004 BKN006 01/00 Q0989 RE SNRA 0429//75 15690295 TEMPO 2500='\n",
      "  warnings.warn(message, RuntimeWarning)\n",
      "C:\\Users\\makes\\miniconda3\\envs\\hems\\lib\\site-packages\\metar\\Metar.py:502: RuntimeWarning: Unparsed groups in body 'SNRA' while processing 'EFHK 040320Z 12015KT 2800 -SNRA BKN004 00/M00 Q0988 RE SNRA 0429//95 1529//95 TEMPO 5000 BKN005='\n",
      "  warnings.warn(message, RuntimeWarning)\n",
      "C:\\Users\\makes\\miniconda3\\envs\\hems\\lib\\site-packages\\metar\\Metar.py:502: RuntimeWarning: Unparsed groups in body '545901943' while processing 'EFHK 201220Z 11008KT 1600 R04R/1200U R15/1100VP1500U R22L/1000VP1500U R04L/1000VP1500D SN VV007 M02/M02 Q1000 RESN 04590194 545901943 NOSIG='\n",
      "  warnings.warn(message, RuntimeWarning)\n",
      "C:\\Users\\makes\\miniconda3\\envs\\hems\\lib\\site-packages\\metar\\Metar.py:502: RuntimeWarning: Unparsed groups in body 'BECM 8000 SCT007 BKN015' while processing 'EFHK 150820Z 15010KT 4000 -SN BKN008 M04/M05 Q0995 04490194 15920192 BECM 8000 SCT007 BKN015='\n",
      "  warnings.warn(message, RuntimeWarning)\n",
      "C:\\Users\\makes\\miniconda3\\envs\\hems\\lib\\site-packages\\metar\\Metar.py:502: RuntimeWarning: Unparsed groups in body 'BECM 8000 SCT007 BKN015' while processing 'EFHK 150850Z 15009KT 5000 -SN BKN009 M04/M06 Q0996 04490194 15920192 BECM 8000 SCT007 BKN015='\n",
      "  warnings.warn(message, RuntimeWarning)\n",
      "C:\\Users\\makes\\miniconda3\\envs\\hems\\lib\\site-packages\\metar\\Metar.py:502: RuntimeWarning: Unparsed groups in body 'BECM 8000 SCT007 BKN015' while processing 'EFHK 150920Z 15008KT 6000 -SN BKN009 M04/M05 Q0996 04490194 15920192 BECM 8000 SCT007 BKN015='\n",
      "  warnings.warn(message, RuntimeWarning)\n",
      "C:\\Users\\makes\\miniconda3\\envs\\hems\\lib\\site-packages\\metar\\Metar.py:502: RuntimeWarning: Unparsed groups in body 'FZFG' while processing 'EFHK 170450Z 20009KT 0250 R04R/0650N R15/0650N R22L/0700N R04L/0750N FG VV002 00/00 Q1006 RE FZFG 0419//95 5419//95 1519//95 NOSIG='\n",
      "  warnings.warn(message, RuntimeWarning)\n",
      "C:\\Users\\makes\\miniconda3\\envs\\hems\\lib\\site-packages\\metar\\Metar.py:502: RuntimeWarning: Unparsed groups in body 'TL 0900 BKN012' while processing 'EFHK 250750Z 01012KT 9999 FEW009 SCT012 BKN018 M01/M04 Q1016 04290178 54290184 TEMPO TL 0900 BKN012='\n",
      "  warnings.warn(message, RuntimeWarning)\n",
      "C:\\Users\\makes\\miniconda3\\envs\\hems\\lib\\site-packages\\metar\\Metar.py:502: RuntimeWarning: Unparsed groups in body 'FM 0300 6000 -SHSN BKN012' while processing 'EFHK 260220Z 29004KT 9999 FEW002 SCT200 M05/M05 Q0984 TEMPO FM 0300 6000 -SHSN BKN012='\n",
      "  warnings.warn(message, RuntimeWarning)\n",
      "C:\\Users\\makes\\miniconda3\\envs\\hems\\lib\\site-packages\\metar\\Metar.py:502: RuntimeWarning: Unparsed groups in body 'FZFG' while processing 'EFHK 051350Z 17007KT 1300 R04R/P1500U R15/1100VP1500U R22L/1100VP1500U R04L/P1500U BR OVC002 M01/M02 Q1012 RE FZFG BECMG 3000='\n",
      "  warnings.warn(message, RuntimeWarning)\n",
      "C:\\Users\\makes\\miniconda3\\envs\\hems\\lib\\site-packages\\metar\\Metar.py:502: RuntimeWarning: Unparsed groups in body '1200 VV010' while processing 'EFHK 061820Z 27016KT 4000 -SN FEW016 BKN022 02/M03 Q0998 TEMPO SHSN 1200 VV010='\n",
      "  warnings.warn(message, RuntimeWarning)\n",
      "C:\\Users\\makes\\miniconda3\\envs\\hems\\lib\\site-packages\\metar\\Metar.py:502: RuntimeWarning: Unparsed groups in body 'NSW' while processing 'EFHK 110020Z 29008KT 9999 TS VCSH FEW010 SCT045CB BKN130 12/10 Q1001 BECMG BKN008 NSW='\n",
      "  warnings.warn(message, RuntimeWarning)\n",
      "C:\\Users\\makes\\miniconda3\\envs\\hems\\lib\\site-packages\\metar\\Metar.py:502: RuntimeWarning: Unparsed groups in body 'FM 0230 6000 SHRA' while processing 'EFHK 080120Z 19007KT 9999 BKN009 BKN053 05/04 Q0997 TEMPO FM 0230 6000 SHRA='\n",
      "  warnings.warn(message, RuntimeWarning)\n",
      "C:\\Users\\makes\\miniconda3\\envs\\hems\\lib\\site-packages\\metar\\Metar.py:502: RuntimeWarning: Unparsed groups in body '22016G26KT' while processing 'EFHK 220920Z 21017KT 9999 FEW004 BKN005 05/04 Q0999 TEMPO BKN004 22016G26KT='\n",
      "  warnings.warn(message, RuntimeWarning)\n",
      "C:\\Users\\makes\\miniconda3\\envs\\hems\\lib\\site-packages\\metar\\Metar.py:502: RuntimeWarning: Unparsed groups in body ';Q' while processing 'EFHK 09165 ;Q 9999 FEW020 SCT200 05/01 Q1017 NOSIG='\n",
      "  warnings.warn(message, RuntimeWarning)\n",
      "C:\\Users\\makes\\miniconda3\\envs\\hems\\lib\\site-packages\\metar\\Metar.py:502: RuntimeWarning: Unparsed groups in body '6000-SN BKN010 METAR EFJY 180120Z AUTO 22007KT 170V270 6000 OVC010 M01/M02 Q1008' while processing 'EFHK 180120Z 22017KT 8000 -SNRA BKN008 BKN010 01/M01 Q1015 TEMPO 6000-SN BKN010 METAR EFJY 180120Z AUTO 22007KT 170V270 6000 OVC010 M01/M02 Q1008='\n",
      "  warnings.warn(message, RuntimeWarning)\n",
      "C:\\Users\\makes\\miniconda3\\envs\\hems\\lib\\site-packages\\metar\\Metar.py:502: RuntimeWarning: Unparsed groups in body '6000-SN BKN010' while processing 'EFHK 180120Z 22017KT 8000 -SNRA BKN008 BKN010 01/M01 Q1015 TEMPO 6000-SN BKN010='\n",
      "  warnings.warn(message, RuntimeWarning)\n",
      "C:\\Users\\makes\\miniconda3\\envs\\hems\\lib\\site-packages\\metar\\Metar.py:502: RuntimeWarning: Unparsed groups in body 'METAR EFJY 190850Z 20008KT 180V250 9999 OVC004 02/02 Q1001' while processing 'EFHK 190850Z 21010KT 4000 -DZ BR SCT002 BKN003 02/02 Q1006 NOSIG METAR EFJY 190850Z 20008KT 180V250 9999 OVC004 02/02 Q1001='\n",
      "  warnings.warn(message, RuntimeWarning)\n",
      "C:\\Users\\makes\\miniconda3\\envs\\hems\\lib\\site-packages\\metar\\Metar.py:502: RuntimeWarning: Unparsed groups in body 'NSW' while processing 'EFHK 291220Z 26014KT 9999 TS VCSH SCT040 FEW050CB 21/11 Q1011 BECMG SCT040 NSW='\n",
      "  warnings.warn(message, RuntimeWarning)\n",
      "C:\\Users\\makes\\miniconda3\\envs\\hems\\lib\\site-packages\\metar\\Metar.py:502: RuntimeWarning: Unparsed groups in body 'NSW' while processing 'EFHK 291250Z 26017KT 9999 VCSH SCT040 FEW050CB 21/12 Q1011 RETS BECMG SCT040 NSW='\n",
      "  warnings.warn(message, RuntimeWarning)\n",
      "C:\\Users\\makes\\miniconda3\\envs\\hems\\lib\\site-packages\\metar\\Metar.py:502: RuntimeWarning: Unparsed groups in body 'NSW' while processing 'EFHK 291320Z 27015KT 9999 VCSH FEW040 FEW060CB 21/11 Q1012 BECMG SCT040 NSW='\n",
      "  warnings.warn(message, RuntimeWarning)\n",
      "C:\\Users\\makes\\miniconda3\\envs\\hems\\lib\\site-packages\\metar\\Metar.py:502: RuntimeWarning: Unparsed groups in body 'TEMPO7000 SHRA BKN014' while processing 'EFHK 301950Z 21018KT 9999 SCT021 SCT028 03/00 Q0981 TEMPO7000 SHRA BKN014='\n",
      "  warnings.warn(message, RuntimeWarning)\n",
      "C:\\Users\\makes\\miniconda3\\envs\\hems\\lib\\site-packages\\metar\\Metar.py:502: RuntimeWarning: Unparsed groups in body 'FM1100 9999 SCT006 BKN013' while processing 'EFHK 031020Z 23009KT 6000 -DZ OVC006 07/07 Q1010 TEMPO TL1100 4000 DZ FM1100 9999 SCT006 BKN013='\n",
      "  warnings.warn(message, RuntimeWarning)\n",
      "C:\\Users\\makes\\miniconda3\\envs\\hems\\lib\\site-packages\\metar\\Metar.py:502: RuntimeWarning: Unparsed groups in body '15015G25KT' while processing 'EFHK 040950Z 15015KT 9999 -RA BKN007 05/04 Q1009 TEMPO 6000 RA 15015G25KT='\n",
      "  warnings.warn(message, RuntimeWarning)\n",
      "C:\\Users\\makes\\miniconda3\\envs\\hems\\lib\\site-packages\\metar\\Metar.py:502: RuntimeWarning: Unparsed groups in body '15015G25KT' while processing 'EFHK 041050Z 14015KT 5000 RA SCT004 BKN006 05/05 Q1007 BECMG -RA 15015G25KT='\n",
      "  warnings.warn(message, RuntimeWarning)\n",
      "C:\\Users\\makes\\miniconda3\\envs\\hems\\lib\\site-packages\\metar\\Metar.py:502: RuntimeWarning: Unparsed groups in body '15015G25KT' while processing 'EFHK 041120Z 14018KT 4500 RA BKN004 06/05 Q1005 BECMG -RA 15015G25KT='\n",
      "  warnings.warn(message, RuntimeWarning)\n",
      "C:\\Users\\makes\\miniconda3\\envs\\hems\\lib\\site-packages\\metar\\Metar.py:502: RuntimeWarning: Unparsed groups in body 'CB' while processing 'EFHK 111550Z 22005KT 8000 -RA FEW012 BKN025 02/01 Q1001 TEMPO SCT020 CB='\n",
      "  warnings.warn(message, RuntimeWarning)\n",
      "C:\\Users\\makes\\miniconda3\\envs\\hems\\lib\\site-packages\\metar\\Metar.py:502: RuntimeWarning: Unparsed groups in body '011' while processing 'EFHK 171220Z 14005KT 9999 -RA FEW012 BKN025 01/01 Q1013 BECMG -RASN BKN 011='\n",
      "  warnings.warn(message, RuntimeWarning)\n",
      "C:\\Users\\makes\\miniconda3\\envs\\hems\\lib\\site-packages\\metar\\Metar.py:502: RuntimeWarning: Unparsed groups in body 'WS 04R' while processing 'EFHK 051220Z 01009KT 9999 FEW020 BKN050 BKN200 M18/M20 Q1007 WS 04R TEMPO 5000 -SN='\n",
      "  warnings.warn(message, RuntimeWarning)\n",
      "C:\\Users\\makes\\miniconda3\\envs\\hems\\lib\\site-packages\\metar\\Metar.py:502: RuntimeWarning: Unparsed groups in body 'MOD SN' while processing 'EFHK 120720Z 05016KT 3000 -SN OVC015 M09/M11 Q0996 BECMG 1500 MOD SN='\n",
      "  warnings.warn(message, RuntimeWarning)\n",
      "C:\\Users\\makes\\miniconda3\\envs\\hems\\lib\\site-packages\\metar\\Metar.py:502: RuntimeWarning: Unparsed groups in body '004' while processing 'EFHK 111050Z 14010KT 9999 -RA FEW004 BKN005 02/02 Q0993 TEMPO BKN 004='\n",
      "  warnings.warn(message, RuntimeWarning)\n",
      "C:\\Users\\makes\\miniconda3\\envs\\hems\\lib\\site-packages\\metar\\Metar.py:502: RuntimeWarning: Unparsed groups in body '004' while processing 'EFHK 111120Z 13010KT 9999 -RA SCT004 BKN005 02/02 Q0993 TEMPO BKN 004='\n",
      "  warnings.warn(message, RuntimeWarning)\n",
      "C:\\Users\\makes\\miniconda3\\envs\\hems\\lib\\site-packages\\metar\\Metar.py:502: RuntimeWarning: Unparsed groups in body '004' while processing 'EFHK 111150Z 14009KT 8000 -RA BKN005 02/02 Q0993 TEMPO BKN 004='\n",
      "  warnings.warn(message, RuntimeWarning)\n",
      "C:\\Users\\makes\\miniconda3\\envs\\hems\\lib\\site-packages\\metar\\Metar.py:502: RuntimeWarning: Unparsed groups in body 'BECMFG BR' while processing 'EFHK 061250Z 08007KT 9999 BKN004 BKN006 01/00 Q1007 BECMFG 4000 BR='\n",
      "  warnings.warn(message, RuntimeWarning)\n",
      "C:\\Users\\makes\\miniconda3\\envs\\hems\\lib\\site-packages\\metar\\Metar.py:502: RuntimeWarning: Unparsed groups in body 'SCT20000' while processing 'EFHK 130820Z 27005KT 9999 BKN004 SCT20000 M01/M02 Q1033 BECMG FEW005='\n",
      "  warnings.warn(message, RuntimeWarning)\n",
      "C:\\Users\\makes\\miniconda3\\envs\\hems\\lib\\site-packages\\metar\\Metar.py:502: RuntimeWarning: Unparsed groups in body 'RE+RA' while processing 'EFHK 281920Z 15008KT 9000 -RA FEW003 BKN030 09/09 Q1012 RE+RA BECMG 22013KT BKN008='\n",
      "  warnings.warn(message, RuntimeWarning)\n",
      "C:\\Users\\makes\\miniconda3\\envs\\hems\\lib\\site-packages\\metar\\Metar.py:502: RuntimeWarning: Unparsed groups in body 'CB' while processing 'EFHK 031020Z 20007KT 170V230 9999 SCT048TCU 25/12 Q1012 TEMPO SCT050 CB='\n",
      "  warnings.warn(message, RuntimeWarning)\n",
      "C:\\Users\\makes\\miniconda3\\envs\\hems\\lib\\site-packages\\metar\\Metar.py:502: RuntimeWarning: Unparsed groups in body 'PFRG' while processing 'EFHK 070550Z VRB02KT 0800 R04R/1200U R15/1100VP1500D R22L/1100VP1500U R04L/P1500U PFRG VV002 16/16 Q1013 BECMG CAVOK='\n",
      "  warnings.warn(message, RuntimeWarning)\n",
      "C:\\Users\\makes\\miniconda3\\envs\\hems\\lib\\site-packages\\metar\\Metar.py:502: RuntimeWarning: Unparsed groups in body 'R' while processing 'EFHK 121020Z 30016KT 9999 -SHRA BKN045CB 12/07 Q1015 WS RWY22 R TEMPO SHRA BKN040CB='\n",
      "  warnings.warn(message, RuntimeWarning)\n",
      "C:\\Users\\makes\\miniconda3\\envs\\hems\\lib\\site-packages\\metar\\Metar.py:502: RuntimeWarning: Unparsed groups in body 'R' while processing 'EFHK 121050Z 29011KT 9999 SHRA BKN042CB 11/08 Q1015 WS RWY22 R NOSIG='\n",
      "  warnings.warn(message, RuntimeWarning)\n",
      "C:\\Users\\makes\\miniconda3\\envs\\hems\\lib\\site-packages\\metar\\Metar.py:502: RuntimeWarning: Unparsed groups in body 'R' while processing 'EFHK 121120Z VRB02KT 9999 VCSH FEW045CB BKN060 13/09 Q1015 WS RWY22 R TEMPO 6000 SHRA='\n",
      "  warnings.warn(message, RuntimeWarning)\n",
      "C:\\Users\\makes\\miniconda3\\envs\\hems\\lib\\site-packages\\metar\\Metar.py:502: RuntimeWarning: Unparsed groups in body '1500' while processing 'EFHK 021250Z 03017KT 6000 -SN BKN009 BKN011 M01/M03 Q1004 TEMPO SN 1500='\n",
      "  warnings.warn(message, RuntimeWarning)\n",
      "C:\\Users\\makes\\miniconda3\\envs\\hems\\lib\\site-packages\\metar\\Metar.py:502: RuntimeWarning: Unparsed groups in body 'BECGM BR' while processing 'EFHK 161450Z 10004KT 070V140 9000 -RA BKN004 02/01 Q1006 BECGM 4000 BR='\n",
      "  warnings.warn(message, RuntimeWarning)\n",
      "C:\\Users\\makes\\miniconda3\\envs\\hems\\lib\\site-packages\\metar\\Metar.py:502: RuntimeWarning: Unparsed groups in body 'NOISG' while processing 'EFHK 140320Z 34008KT 9000 FEW002 BKN005 BKN011 M01/M01 Q1008 NOISG='\n",
      "  warnings.warn(message, RuntimeWarning)\n",
      "C:\\Users\\makes\\miniconda3\\envs\\hems\\lib\\site-packages\\metar\\Metar.py:502: RuntimeWarning: Unparsed groups in body 'SN' while processing 'EFHK 070920Z 18018KT 3000 -SN DRSN BKN008 M05/M06 Q1020 TEMPO 1200 BKN010 SN='\n",
      "  warnings.warn(message, RuntimeWarning)\n",
      "C:\\Users\\makes\\miniconda3\\envs\\hems\\lib\\site-packages\\metar\\Metar.py:502: RuntimeWarning: Unparsed groups in body 'REFZPRFG' while processing 'EFHK 270620Z 29004KT 4000W BR SCT002 BKN015 M05/M06 Q1003 REFZPRFG TEMPO 2500 BKN002='\n",
      "  warnings.warn(message, RuntimeWarning)\n",
      "C:\\Users\\makes\\miniconda3\\envs\\hems\\lib\\site-packages\\metar\\Metar.py:502: RuntimeWarning: Unparsed groups in body 'WS 04L' while processing 'EFHK 151420Z 33005KT 300V360 9999 VCSH FEW030CB BKN045 M01/M08 Q1007 WS 04L TEMPO 4000 -SHSN='\n",
      "  warnings.warn(message, RuntimeWarning)\n",
      "C:\\Users\\makes\\miniconda3\\envs\\hems\\lib\\site-packages\\metar\\Metar.py:502: RuntimeWarning: Unparsed groups in body 'WS 04L' while processing 'EFHK 151450Z 01010KT 9999 VCSH FEW030CB BKN045 M00/M08 Q1007 WS 04L TEMPO 5000 -SHSN='\n",
      "  warnings.warn(message, RuntimeWarning)\n",
      "C:\\Users\\makes\\miniconda3\\envs\\hems\\lib\\site-packages\\metar\\Metar.py:502: RuntimeWarning: Unparsed groups in body '500 FZFG SCT001' while processing 'EFHK 110150Z 26004KT 1500 R04R/P1500D R15/P1500U R22L/1100U R04L/1000VP1500D BR BKN001 M03/M04 Q1007 TEMPO 500 FZFG SCT001='\n",
      "  warnings.warn(message, RuntimeWarning)\n",
      "C:\\Users\\makes\\miniconda3\\envs\\hems\\lib\\site-packages\\metar\\Metar.py:502: RuntimeWarning: Unparsed groups in body '48' while processing 'EFHK 210020Z 12003KT 9999 48 FEW048 12/07 Q1018 NOSIG='\n",
      "  warnings.warn(message, RuntimeWarning)\n",
      "C:\\Users\\makes\\miniconda3\\envs\\hems\\lib\\site-packages\\metar\\Metar.py:502: RuntimeWarning: Unparsed groups in body 'TEMP0 TSRA BKN050CB' while processing 'EFHK 282120Z 19009KT 9999 -SHRA FEW050CB SCT075 BKN120 15/11 Q1002 TEMP0 7000 TSRA BKN050CB='\n",
      "  warnings.warn(message, RuntimeWarning)\n",
      "C:\\Users\\makes\\miniconda3\\envs\\hems\\lib\\site-packages\\metar\\Metar.py:502: RuntimeWarning: Unparsed groups in body 'CB BKN040' while processing 'EFHK 130920Z 28013KT 9999 SCT015 BKN040 BKN070 15/11 Q0989 BECMG SCT020 CB BKN040='\n",
      "  warnings.warn(message, RuntimeWarning)\n",
      "C:\\Users\\makes\\miniconda3\\envs\\hems\\lib\\site-packages\\metar\\Metar.py:502: RuntimeWarning: Unparsed groups in body 'CB BKN040' while processing 'EFHK 130950Z 27012KT 9999 FEW017 BKN040 BKN100 15/11 Q0989 BECMG SCT020 CB BKN040='\n",
      "  warnings.warn(message, RuntimeWarning)\n",
      "C:\\Users\\makes\\miniconda3\\envs\\hems\\lib\\site-packages\\metar\\Metar.py:502: RuntimeWarning: Unparsed groups in body 'CB BKN040' while processing 'EFHK 131020Z 27008KT 230V300 9999 FEW017 BKN045 BKN100 16/11 Q0990 BECMG SCT020 CB BKN040='\n",
      "  warnings.warn(message, RuntimeWarning)\n",
      "C:\\Users\\makes\\miniconda3\\envs\\hems\\lib\\site-packages\\metar\\Metar.py:502: RuntimeWarning: Unparsed groups in body 'CB' while processing 'EFHK 131050Z 30009KT 9999 -RA SCT017 BKN040 16/11 Q0990 TEMPO 7000 RA SCT020 CB='\n",
      "  warnings.warn(message, RuntimeWarning)\n",
      "C:\\Users\\makes\\miniconda3\\envs\\hems\\lib\\site-packages\\metar\\Metar.py:502: RuntimeWarning: Unparsed groups in body 'SHRA' while processing 'EFHK 250450Z 19006KT 9999 SCT006 SCT060 BKN075 14/11 Q0994 TEMPO SCT035CB SHRA='\n",
      "  warnings.warn(message, RuntimeWarning)\n",
      "C:\\Users\\makes\\miniconda3\\envs\\hems\\lib\\site-packages\\metar\\Metar.py:502: RuntimeWarning: Unparsed groups in body 'RA' while processing 'EFHK 170650Z 17010KT 9999 -RA BKN009 BKN016 16/14 Q1006 TEMPO SCT009 RA='\n",
      "  warnings.warn(message, RuntimeWarning)\n",
      "C:\\Users\\makes\\miniconda3\\envs\\hems\\lib\\site-packages\\metar\\Metar.py:502: RuntimeWarning: Unparsed groups in body 'RA' while processing 'EFHK 170720Z 17010KT 9999 FEW008 BKN011 16/14 Q1006 TEMPO BKN007 RA='\n",
      "  warnings.warn(message, RuntimeWarning)\n",
      "C:\\Users\\makes\\miniconda3\\envs\\hems\\lib\\site-packages\\metar\\Metar.py:502: RuntimeWarning: Unparsed groups in body 'RA' while processing 'EFHK 170750Z 17013KT 5000 -RA SCT006 BKN009 15/14 Q1006 TEMPO 9999 SCT009 RA='\n",
      "  warnings.warn(message, RuntimeWarning)\n",
      "C:\\Users\\makes\\miniconda3\\envs\\hems\\lib\\site-packages\\metar\\Metar.py:502: RuntimeWarning: Unparsed groups in body 'RA FEW030CB' while processing 'EFHK 170850Z 17013KT 7000 -RA FEW005 BKN009 15/14 Q1005 TEMPO 4000 BKN004 RA FEW030CB='\n",
      "  warnings.warn(message, RuntimeWarning)\n",
      "C:\\Users\\makes\\miniconda3\\envs\\hems\\lib\\site-packages\\metar\\Metar.py:502: RuntimeWarning: Unparsed groups in body 'RA BKN030CB' while processing 'EFHK 170920Z 16014KT 7000 -RA SCT008 BKN036 14/13 Q1005 TEMPO BKN009 RA BKN030CB='\n",
      "  warnings.warn(message, RuntimeWarning)\n",
      "C:\\Users\\makes\\miniconda3\\envs\\hems\\lib\\site-packages\\metar\\Metar.py:502: RuntimeWarning: Unparsed groups in body 'RA' while processing 'EFHK 170950Z 15013KT 2500 -RA BR SCT004 BKN008 15/14 Q1005 TEMPO 4000 BKN004 RA='\n",
      "  warnings.warn(message, RuntimeWarning)\n",
      "C:\\Users\\makes\\miniconda3\\envs\\hems\\lib\\site-packages\\metar\\Metar.py:502: RuntimeWarning: Unparsed groups in body 'RA 4000' while processing 'EFHK 171020Z 16014KT 2400 DZ BKN004 BKN007 15/14 Q1005 TEMPO BKN009 RA 4000='\n",
      "  warnings.warn(message, RuntimeWarning)\n",
      "C:\\Users\\makes\\miniconda3\\envs\\hems\\lib\\site-packages\\metar\\Metar.py:502: RuntimeWarning: Unparsed groups in body '9999' while processing 'EFHK 171050Z 16012KT 2800 -RA BR FEW003 BKN006 15/14 Q1004 BECMG SCT020 9999='\n",
      "  warnings.warn(message, RuntimeWarning)\n",
      "C:\\Users\\makes\\miniconda3\\envs\\hems\\lib\\site-packages\\metar\\Metar.py:502: RuntimeWarning: Unparsed groups in body '5000 SHRA' while processing 'EFHK 070820Z 25006KT 9999 VCSH FEW007 SCT014 SCT040CB 17/15 Q1010 TEMPO BKN030CB 5000 SHRA='\n",
      "  warnings.warn(message, RuntimeWarning)\n",
      "C:\\Users\\makes\\miniconda3\\envs\\hems\\lib\\site-packages\\metar\\Metar.py:502: RuntimeWarning: Unparsed groups in body '5000 SHRA' while processing 'EFHK 070850Z 24007KT 9999 -SHRA SCT014 SCT040CB 16/14 Q1010 TEMPO BKN040CB 5000 SHRA='\n",
      "  warnings.warn(message, RuntimeWarning)\n",
      "C:\\Users\\makes\\miniconda3\\envs\\hems\\lib\\site-packages\\metar\\Metar.py:502: RuntimeWarning: Unparsed groups in body '5000 SHRA' while processing 'EFHK 070920Z 22008KT 9999 VCSH FEW014 SCT040CB BKN080 16/15 Q1010 TEMPO BKN040CB 5000 SHRA='\n",
      "  warnings.warn(message, RuntimeWarning)\n",
      "C:\\Users\\makes\\miniconda3\\envs\\hems\\lib\\site-packages\\metar\\Metar.py:502: RuntimeWarning: Unparsed groups in body '5000 SHRA' while processing 'EFHK 070950Z 24009KT 9999 -SHRA FEW010 SCT040CB BKN080 16/15 Q1011 TEMPO BKN040CB 5000 SHRA='\n",
      "  warnings.warn(message, RuntimeWarning)\n",
      "C:\\Users\\makes\\miniconda3\\envs\\hems\\lib\\site-packages\\metar\\Metar.py:502: RuntimeWarning: Unparsed groups in body '5000 SHRA' while processing 'EFHK 071020Z 26006KT 9999 VCSH FEW006 SCT040CB BKN080 16/15 Q1011 TEMPO BKN040CB 5000 SHRA='\n",
      "  warnings.warn(message, RuntimeWarning)\n",
      "C:\\Users\\makes\\miniconda3\\envs\\hems\\lib\\site-packages\\metar\\Metar.py:502: RuntimeWarning: Unparsed groups in body '5000 SHRA' while processing 'EFHK 071050Z 27005KT 9999 VCSH SCT010 FEW040CB BKN100 17/15 Q1011 TEMPO BKN040CB 5000 SHRA='\n",
      "  warnings.warn(message, RuntimeWarning)\n",
      "C:\\Users\\makes\\miniconda3\\envs\\hems\\lib\\site-packages\\metar\\Metar.py:502: RuntimeWarning: Unparsed groups in body 'FM1630 TSRA BKN030CB' while processing 'EFHK 121450Z 13009KT CAVOK 25/19 Q1006 FM1630 3000 TSRA BKN030CB='\n",
      "  warnings.warn(message, RuntimeWarning)\n",
      "C:\\Users\\makes\\miniconda3\\envs\\hems\\lib\\site-packages\\metar\\Metar.py:502: RuntimeWarning: Unparsed groups in body 'KT 3000 +TSRA' while processing 'EFHK 121520Z 13009KT 9999 FEW050CB BKN070 BKN200 24/19 Q1006 BECMG FM1630 VRB20G40 KT 3000 +TSRA='\n",
      "  warnings.warn(message, RuntimeWarning)\n",
      "C:\\Users\\makes\\miniconda3\\envs\\hems\\lib\\site-packages\\metar\\Metar.py:502: RuntimeWarning: Unparsed groups in body '5000' while processing 'EFHK 061050Z 22008KT 9000 SCT004 BKN020 08/07 Q1009 TEMPO BKN004 5000='\n",
      "  warnings.warn(message, RuntimeWarning)\n",
      "C:\\Users\\makes\\miniconda3\\envs\\hems\\lib\\site-packages\\metar\\Metar.py:502: RuntimeWarning: Unparsed groups in body '0700' while processing 'EFHK 120750Z 11014KT 1000 R04R/P1500U R15/P1500U R22L/P1500U R04L/P1500U SN FEW003 BKN004 00/M00 Q0993 TEMPO +SN 0700='\n",
      "  warnings.warn(message, RuntimeWarning)\n",
      "C:\\Users\\makes\\miniconda3\\envs\\hems\\lib\\site-packages\\metar\\Metar.py:502: RuntimeWarning: Unparsed groups in body '5000' while processing 'EFHK 190620Z 03004KT 9999 -SN BKN010 M06/M07 Q1002 TEMPO BKN009 5000='\n",
      "  warnings.warn(message, RuntimeWarning)\n",
      "C:\\Users\\makes\\miniconda3\\envs\\hems\\lib\\site-packages\\metar\\Metar.py:502: RuntimeWarning: Unparsed groups in body 'WS R 22R' while processing 'EFHK 251050Z 21024KT 9999 -RA BKN014 05/02 Q0995 WS R 22R BECMG BKN015='\n",
      "  warnings.warn(message, RuntimeWarning)\n",
      "C:\\Users\\makes\\miniconda3\\envs\\hems\\lib\\site-packages\\metar\\Metar.py:502: RuntimeWarning: Unparsed groups in body 'WS R 22R' while processing 'EFHK 251120Z 21022G33KT 9999 -RA BKN013 05/03 Q0995 WS R 22R BECMG BKN015='\n",
      "  warnings.warn(message, RuntimeWarning)\n",
      "C:\\Users\\makes\\miniconda3\\envs\\hems\\lib\\site-packages\\metar\\Metar.py:502: RuntimeWarning: Unparsed groups in body '9999' while processing 'EFHK 051320Z 11009KT 9999 -SHSN SCT015 BKN023 M07/M10 Q1012 TEMPO BKN014 9999='\n",
      "  warnings.warn(message, RuntimeWarning)\n",
      "C:\\Users\\makes\\miniconda3\\envs\\hems\\lib\\site-packages\\metar\\Metar.py:502: RuntimeWarning: Unparsed groups in body 'BR' while processing 'EFHK 131950Z 11003KT 0400 R04R/P1500N R15/1100VP1500D R22L/1500N R04L/1200N -DZ FG VV001 01/01 Q0991 TEMPO 0800 VV002 BR='\n",
      "  warnings.warn(message, RuntimeWarning)\n",
      "C:\\Users\\makes\\miniconda3\\envs\\hems\\lib\\site-packages\\metar\\Metar.py:502: RuntimeWarning: Unparsed groups in body '0600' while processing 'EFHK 132050Z 04002KT 0300 R04R/1100VP1500D R15/0800N R22L/0800N R04L/1000N -DZ FG VV001 01/01 Q0991 TEMPO VV002 0600='\n",
      "  warnings.warn(message, RuntimeWarning)\n",
      "C:\\Users\\makes\\miniconda3\\envs\\hems\\lib\\site-packages\\metar\\Metar.py:502: RuntimeWarning: Unparsed groups in body '2000' while processing 'EFHK 190820Z 26012KT 9999 -SHSN BKN042 02/M02 Q1001 TEMPO SHSN 2000='\n",
      "  warnings.warn(message, RuntimeWarning)\n",
      "C:\\Users\\makes\\miniconda3\\envs\\hems\\lib\\site-packages\\metar\\Metar.py:502: RuntimeWarning: Unparsed groups in body '2000 BKN013 SCT030CB' while processing 'EFHK 190850Z 26010KT 5000 -SHSN SCT017 BKN035 02/M02 Q1001 TEMPO SHSN 2000 BKN013 SCT030CB='\n",
      "  warnings.warn(message, RuntimeWarning)\n",
      "C:\\Users\\makes\\miniconda3\\envs\\hems\\lib\\site-packages\\metar\\Metar.py:502: RuntimeWarning: Unparsed groups in body '2500 BKN012' while processing 'EFHK 221520Z 27012KT 9999 VCSH FEW008 BKN030 02/M01 Q0995 TEMPO -SHSN 2500 BKN012='\n",
      "  warnings.warn(message, RuntimeWarning)\n",
      "C:\\Users\\makes\\miniconda3\\envs\\hems\\lib\\site-packages\\metar\\Metar.py:502: RuntimeWarning: Unparsed groups in body 'WIND 36010KT' while processing 'EFHK 251850Z 24005KT 9999 FEW030 01/M01 Q0999 BECMG WIND 36010KT='\n",
      "  warnings.warn(message, RuntimeWarning)\n",
      "C:\\Users\\makes\\miniconda3\\envs\\hems\\lib\\site-packages\\metar\\Metar.py:502: RuntimeWarning: Unparsed groups in body '-TSRA' while processing 'EFHK 202320Z 20011KT 9999 FEW007 SCT060 BKN110 06/04 Q0999 TEMPO 6000 BKN007 BKN030CB -TSRA='\n",
      "  warnings.warn(message, RuntimeWarning)\n",
      "C:\\Users\\makes\\miniconda3\\envs\\hems\\lib\\site-packages\\metar\\Metar.py:502: RuntimeWarning: Unparsed groups in body 'VV1' while processing 'EFHK 012250Z VRB02KT 0500 R04R/1000V1500N R15/1100N R22L/0800V1100D R04L/1100D FG -DZ VV002 05/05 Q1009 TEMPO 0700 VV1='\n",
      "  warnings.warn(message, RuntimeWarning)\n",
      "C:\\Users\\makes\\miniconda3\\envs\\hems\\lib\\site-packages\\metar\\Metar.py:502: RuntimeWarning: Unparsed groups in body 'VV1' while processing 'EFHK 020120Z VRB03KT 0700 R04R/P1500N R15/P1500U R22L/P1500U R04L/P1500N FG VV002 06/05 Q1009 TEMPO 1500 BR VV1='\n",
      "  warnings.warn(message, RuntimeWarning)\n",
      "C:\\Users\\makes\\miniconda3\\envs\\hems\\lib\\site-packages\\metar\\Metar.py:502: RuntimeWarning: Unparsed groups in body 'RA' while processing 'EFHK 190720Z 18017KT 9999 BKN014 BKN039 17/13 Q1005 BECMG 4000 BKN008 BKN040CB RA='\n",
      "  warnings.warn(message, RuntimeWarning)\n",
      "C:\\Users\\makes\\miniconda3\\envs\\hems\\lib\\site-packages\\metar\\Metar.py:502: RuntimeWarning: Unparsed groups in body 'BCMG NSW BKN015' while processing 'EFHK 211220Z 11009KT 5000 RA BKN007 13/12 Q1003 BCMG 9999 NSW BKN015='\n",
      "  warnings.warn(message, RuntimeWarning)\n",
      "C:\\Users\\makes\\miniconda3\\envs\\hems\\lib\\site-packages\\metar\\Metar.py:502: RuntimeWarning: Unparsed groups in body 'BCMG BKN015' while processing 'EFHK 211250Z 12010KT 9999 -RA BKN006 14/13 Q1002 BCMG BKN015='\n",
      "  warnings.warn(message, RuntimeWarning)\n",
      "C:\\Users\\makes\\miniconda3\\envs\\hems\\lib\\site-packages\\metar\\Metar.py:502: RuntimeWarning: Unparsed groups in body 'TSHRA' while processing 'EFHK 042050Z 25007KT 9999 VCSH SCT030CB BKN040 16/13 Q1004 TEMPO 6000 TSHRA='\n",
      "  warnings.warn(message, RuntimeWarning)\n",
      "C:\\Users\\makes\\miniconda3\\envs\\hems\\lib\\site-packages\\metar\\Metar.py:502: RuntimeWarning: Unparsed groups in body 'VSTSRA' while processing 'EFHK 141320Z 12008KT 9999 VSTSRA SCT055CB 28/14 Q1010 TEMPO 5000 TSRA='\n",
      "  warnings.warn(message, RuntimeWarning)\n",
      "C:\\Users\\makes\\miniconda3\\envs\\hems\\lib\\site-packages\\metar\\Metar.py:502: RuntimeWarning: Unparsed groups in body 'FEWTCU070' while processing 'EFHK 171120Z 13016KT CAVOK 31/13 Q1015 TEMPO FEWTCU070='\n",
      "  warnings.warn(message, RuntimeWarning)\n",
      "C:\\Users\\makes\\miniconda3\\envs\\hems\\lib\\site-packages\\metar\\Metar.py:502: RuntimeWarning: Unparsed groups in body 'TILL1100 FEW010 BKN050' while processing 'EFHK 211020Z 18014KT 9999 BKN009 BKN050 17/15 Q1008 BECMG TILL1100 FEW010 BKN050='\n",
      "  warnings.warn(message, RuntimeWarning)\n",
      "C:\\Users\\makes\\miniconda3\\envs\\hems\\lib\\site-packages\\metar\\Metar.py:502: RuntimeWarning: Unparsed groups in body '5000' while processing 'EFHK 121220Z 18009KT 3000 BR BKN002 10/10 Q1027 TEMPO BKN003 5000='\n",
      "  warnings.warn(message, RuntimeWarning)\n",
      "C:\\Users\\makes\\miniconda3\\envs\\hems\\lib\\site-packages\\metar\\Metar.py:502: RuntimeWarning: Unparsed groups in body '6000' while processing 'EFHK 310920Z 13012KT 4000 DZ OVC004 07/06 Q1016 TEMPO -DZ 6000='\n",
      "  warnings.warn(message, RuntimeWarning)\n",
      "C:\\Users\\makes\\miniconda3\\envs\\hems\\lib\\site-packages\\metar\\Metar.py:502: RuntimeWarning: Unparsed groups in body '8000' while processing 'EFHK 210850Z 05011KT 7000 -SN SCT008 BKN010 M07/M08 Q1020 TEMPO BKN008 8000='\n",
      "  warnings.warn(message, RuntimeWarning)\n",
      "C:\\Users\\makes\\miniconda3\\envs\\hems\\lib\\site-packages\\metar\\Metar.py:502: RuntimeWarning: Unparsed groups in body 'MOD SN' while processing 'EFHK 231420Z 20009KT 2800 -SN BKN005 M01/M01 Q1007 TEMPO MOD SN='\n",
      "  warnings.warn(message, RuntimeWarning)\n",
      "C:\\Users\\makes\\miniconda3\\envs\\hems\\lib\\site-packages\\metar\\Metar.py:502: RuntimeWarning: Unparsed groups in body 'MOD SN' while processing 'EFHK 231450Z 20008KT 2800 -SN BKN004 M01/M01 Q1007 TEMPO MOD SN='\n",
      "  warnings.warn(message, RuntimeWarning)\n",
      "C:\\Users\\makes\\miniconda3\\envs\\hems\\lib\\site-packages\\metar\\Metar.py:502: RuntimeWarning: Unparsed groups in body '3000 BKN006' while processing 'EFHK 060320Z 19006KT 2000 SN FEW004 BKN012 M02/M02 Q1011 BECMG -SN 3000 BKN006='\n",
      "  warnings.warn(message, RuntimeWarning)\n",
      "C:\\Users\\makes\\miniconda3\\envs\\hems\\lib\\site-packages\\metar\\Metar.py:502: RuntimeWarning: Unparsed groups in body '500 FG VV001' while processing 'EFHK 191950Z 21009KT 4000 BR BKN002 02/02 Q0991 TEMPO 500 FG VV001='\n",
      "  warnings.warn(message, RuntimeWarning)\n",
      "C:\\Users\\makes\\miniconda3\\envs\\hems\\lib\\site-packages\\metar\\Metar.py:502: RuntimeWarning: Unparsed groups in body '-RA' while processing 'EFHK 012220Z 23005KT 6000 DZRA FEW002 BKN003 BKN005 05/05 Q0991 TEMPO BKN004 -RA='\n",
      "  warnings.warn(message, RuntimeWarning)\n",
      "C:\\Users\\makes\\miniconda3\\envs\\hems\\lib\\site-packages\\metar\\Metar.py:502: RuntimeWarning: Unparsed groups in body 'RE-TSRA' while processing 'EFHK 221520Z VRB02KT 9999 VCSH FEW045CB BKN090 18/15 Q1008 RE-TSRA NOSIG='\n",
      "  warnings.warn(message, RuntimeWarning)\n",
      "C:\\Users\\makes\\miniconda3\\envs\\hems\\lib\\site-packages\\metar\\Metar.py:502: RuntimeWarning: Unparsed groups in body '2000 BR' while processing 'EFHK 242120Z 10005KT 7000 -DZ BKN002 10/09 Q1007 BECMG BKN001 2000 BR='\n",
      "  warnings.warn(message, RuntimeWarning)\n",
      "C:\\Users\\makes\\miniconda3\\envs\\hems\\lib\\site-packages\\metar\\Metar.py:502: RuntimeWarning: Unparsed groups in body 'CB' while processing 'EFHK 021120Z 24012KT 9999 SHRA SCT030 CB 15/13 Q0998 TEMPO 7000='\n",
      "  warnings.warn(message, RuntimeWarning)\n",
      "C:\\Users\\makes\\miniconda3\\envs\\hems\\lib\\site-packages\\metar\\Metar.py:502: RuntimeWarning: Unparsed groups in body 'CB' while processing 'EFHK 152020Z 11007KT 9999 -SHRA FEW040 CB 15/12 Q1007 TEMPO -TSRA='\n",
      "  warnings.warn(message, RuntimeWarning)\n",
      "C:\\Users\\makes\\miniconda3\\envs\\hems\\lib\\site-packages\\metar\\Metar.py:502: RuntimeWarning: Unparsed groups in body 'CB' while processing 'EFHK 051420Z 32012KT 280V350 9999 -SHRA FEW060 CB 20/06 Q1005 BECMG NSW='\n",
      "  warnings.warn(message, RuntimeWarning)\n",
      "C:\\Users\\makes\\miniconda3\\envs\\hems\\lib\\site-packages\\metar\\Metar.py:502: RuntimeWarning: Unparsed groups in body 'AT 2230 SCT025CB' while processing 'EFHK 122150Z 21005KT 9999 FEW023 BKN040 08/07 Q0997 BECMG AT 2230 SCT025CB='\n",
      "  warnings.warn(message, RuntimeWarning)\n",
      "C:\\Users\\makes\\miniconda3\\envs\\hems\\lib\\site-packages\\metar\\Metar.py:502: RuntimeWarning: Unparsed groups in body 'N0900' while processing 'EFHK 200750Z 35003KT 310V030 7000 N0900 R04L/P2000N R15/P2000N R22L/P2000N R22R/P2000N BCFG SCT002 SCT022 09/09 Q1014 BECMG BKN002='\n",
      "  warnings.warn(message, RuntimeWarning)\n",
      "C:\\Users\\makes\\miniconda3\\envs\\hems\\lib\\site-packages\\metar\\Metar.py:502: RuntimeWarning: Unparsed groups in body 'SM08 SCT010 FEW030TCU' while processing 'EFHK 310620Z 22005KT 9999 FEW040 02/01 Q1013 TEMPO SM08 SCT010 FEW030TCU='\n",
      "  warnings.warn(message, RuntimeWarning)\n",
      "C:\\Users\\makes\\miniconda3\\envs\\hems\\lib\\site-packages\\metar\\Metar.py:502: RuntimeWarning: Unparsed groups in body '5000' while processing 'EFHK 261550Z 19008KT 8000 -DZ BKN005 01/00 Q1010 BECMG OVC003 5000='\n",
      "  warnings.warn(message, RuntimeWarning)\n",
      "C:\\Users\\makes\\miniconda3\\envs\\hems\\lib\\site-packages\\metar\\Metar.py:502: RuntimeWarning: Unparsed groups in body 'TILL1400 BKN015' while processing 'EFHK 021250Z 30011KT 9999 BKN010 BKN040 04/03 Q0977 BECMG TILL1400 BKN015='\n",
      "  warnings.warn(message, RuntimeWarning)\n",
      "C:\\Users\\makes\\miniconda3\\envs\\hems\\lib\\site-packages\\metar\\Metar.py:502: RuntimeWarning: Unparsed groups in body 'NSW' while processing 'EFHK 140150Z VRB02KT 8000 -FZDZ SCT002 SCT006 BKN008 M02/M02 Q1005 TEMPO BKN010 NSW='\n",
      "  warnings.warn(message, RuntimeWarning)\n",
      "C:\\Users\\makes\\miniconda3\\envs\\hems\\lib\\site-packages\\metar\\Metar.py:502: RuntimeWarning: Unparsed groups in body '2500' while processing 'EFHK 041350Z 10015G26KT 070V130 8000 -RASN BKN007 01/00 Q1006 TEMPO SNRA 2500='\n",
      "  warnings.warn(message, RuntimeWarning)\n",
      "C:\\Users\\makes\\miniconda3\\envs\\hems\\lib\\site-packages\\metar\\Metar.py:502: RuntimeWarning: Unparsed groups in body '6000' while processing 'EFHK 240720Z 20009KT 180V240 9999 FEW030CB 14/11 Q1002 TEMPO TSRA 6000='\n",
      "  warnings.warn(message, RuntimeWarning)\n",
      "C:\\Users\\makes\\miniconda3\\envs\\hems\\lib\\site-packages\\metar\\Metar.py:502: RuntimeWarning: Unparsed groups in body '180DEG10KT BKN010 BKN020CB' while processing 'EFHK 031720Z 14009KT 9999 -RA BKN007 BKN018 17/16 Q1015 BECMG 180DEG10KT BKN010 BKN020CB='\n",
      "  warnings.warn(message, RuntimeWarning)\n",
      "C:\\Users\\makes\\miniconda3\\envs\\hems\\lib\\site-packages\\metar\\Metar.py:502: RuntimeWarning: Unparsed groups in body '24012KT' while processing 'EFHK 091450Z 18016KT 7000 -RA BKN007 12/11 Q1007 BECMG TL1630 9999 24012KT='\n",
      "  warnings.warn(message, RuntimeWarning)\n",
      "C:\\Users\\makes\\miniconda3\\envs\\hems\\lib\\site-packages\\metar\\Metar.py:502: RuntimeWarning: Unparsed groups in body 'TMPO SCT007 BKN012' while processing 'EFHK 170020Z 27013KT 9999 BKN007 BKN011 03/02 Q1014 TMPO SCT007 BKN012='\n",
      "  warnings.warn(message, RuntimeWarning)\n",
      "C:\\Users\\makes\\miniconda3\\envs\\hems\\lib\\site-packages\\metar\\Metar.py:502: RuntimeWarning: Unparsed groups in body '400S' while processing 'EFHK 010250Z 32002KT 0900 400S R04L/1300D R15/1200U R22L/0650D R22R/1600U FG BKN002 M12/M13 Q0994 BECMG 2000 BR='\n",
      "  warnings.warn(message, RuntimeWarning)\n",
      "C:\\Users\\makes\\miniconda3\\envs\\hems\\lib\\site-packages\\metar\\Metar.py:502: RuntimeWarning: Unparsed groups in body 'BRFG -SHRA BKN002 FEW020CB' while processing 'EFHK 190350Z 36005KT 0800 R04L/P2000N R15/1500D R22L/1700D R22R/1800D -RA FG OVC002 12/12 Q0999 TEMPO 1200 BRFG -SHRA BKN002 FEW020CB='\n",
      "  warnings.warn(message, RuntimeWarning)\n",
      "C:\\Users\\makes\\miniconda3\\envs\\hems\\lib\\site-packages\\metar\\Metar.py:502: RuntimeWarning: Unparsed groups in body 'NSW' while processing 'EFHK 261120Z 31004KT 230V350 9999 TS FEW025 FEW030CB 23/17 Q1011 BECMG FEW030 NSW='\n",
      "  warnings.warn(message, RuntimeWarning)\n",
      "C:\\Users\\makes\\miniconda3\\envs\\hems\\lib\\site-packages\\metar\\Metar.py:502: RuntimeWarning: Unparsed groups in body 'WS22L' while processing 'EFHK 021150Z 28014KT 250V320 9999 SCT045 15/04 Q1012 WS22L NOSIG='\n",
      "  warnings.warn(message, RuntimeWarning)\n",
      "C:\\Users\\makes\\miniconda3\\envs\\hems\\lib\\site-packages\\metar\\Metar.py:502: RuntimeWarning: Unparsed groups in body 'WS RWY 22L' while processing 'EFHK 251250Z 23013KT 9999 BKN029 10/04 Q1013 WS RWY 22L NOSIG='\n",
      "  warnings.warn(message, RuntimeWarning)\n"
     ]
    }
   ],
   "source": [
    "metar, taf = load_station('EFHK')"
   ]
  },
  {
   "cell_type": "code",
   "execution_count": 20,
   "metadata": {},
   "outputs": [
    {
     "data": {
      "text/html": [
       "<div>\n",
       "<style scoped>\n",
       "    .dataframe tbody tr th:only-of-type {\n",
       "        vertical-align: middle;\n",
       "    }\n",
       "\n",
       "    .dataframe tbody tr th {\n",
       "        vertical-align: top;\n",
       "    }\n",
       "\n",
       "    .dataframe thead th {\n",
       "        text-align: right;\n",
       "    }\n",
       "</style>\n",
       "<table border=\"1\" class=\"dataframe\">\n",
       "  <thead>\n",
       "    <tr style=\"text-align: right;\">\n",
       "      <th></th>\n",
       "      <th>icao</th>\n",
       "      <th>time</th>\n",
       "      <th>temp</th>\n",
       "      <th>vis</th>\n",
       "      <th>rvr</th>\n",
       "      <th>ceil</th>\n",
       "      <th>base</th>\n",
       "      <th>night</th>\n",
       "      <th>metar_msg</th>\n",
       "    </tr>\n",
       "  </thead>\n",
       "  <tbody>\n",
       "    <tr>\n",
       "      <th>0</th>\n",
       "      <td>EFHK</td>\n",
       "      <td>2011-01-01 00:20:00</td>\n",
       "      <td>-2.0</td>\n",
       "      <td>10000</td>\n",
       "      <td>9999</td>\n",
       "      <td>600</td>\n",
       "      <td>600</td>\n",
       "      <td>True</td>\n",
       "      <td>EFHK 010020Z 15010KT 9999 -SG BKN006 M02/M03 Q...</td>\n",
       "    </tr>\n",
       "    <tr>\n",
       "      <th>1</th>\n",
       "      <td>EFHK</td>\n",
       "      <td>2011-01-01 00:50:00</td>\n",
       "      <td>-2.0</td>\n",
       "      <td>10000</td>\n",
       "      <td>9999</td>\n",
       "      <td>600</td>\n",
       "      <td>600</td>\n",
       "      <td>True</td>\n",
       "      <td>EFHK 010050Z 14009KT 9999 BKN006 M02/M03 Q0993...</td>\n",
       "    </tr>\n",
       "    <tr>\n",
       "      <th>2</th>\n",
       "      <td>EFHK</td>\n",
       "      <td>2011-01-01 01:20:00</td>\n",
       "      <td>-2.0</td>\n",
       "      <td>10000</td>\n",
       "      <td>9999</td>\n",
       "      <td>700</td>\n",
       "      <td>700</td>\n",
       "      <td>True</td>\n",
       "      <td>EFHK 010120Z 15010KT 9999 BKN007 BKN032 M02/M0...</td>\n",
       "    </tr>\n",
       "    <tr>\n",
       "      <th>3</th>\n",
       "      <td>EFHK</td>\n",
       "      <td>2011-01-01 01:50:00</td>\n",
       "      <td>-2.0</td>\n",
       "      <td>10000</td>\n",
       "      <td>9999</td>\n",
       "      <td>700</td>\n",
       "      <td>700</td>\n",
       "      <td>True</td>\n",
       "      <td>EFHK 010150Z 14010KT 9999 BKN007 BKN025 M02/M0...</td>\n",
       "    </tr>\n",
       "    <tr>\n",
       "      <th>4</th>\n",
       "      <td>EFHK</td>\n",
       "      <td>2011-01-01 02:20:00</td>\n",
       "      <td>-3.0</td>\n",
       "      <td>10000</td>\n",
       "      <td>9999</td>\n",
       "      <td>500</td>\n",
       "      <td>500</td>\n",
       "      <td>True</td>\n",
       "      <td>EFHK 010220Z 13011KT 9999 BKN005 M03/M04 Q0992...</td>\n",
       "    </tr>\n",
       "    <tr>\n",
       "      <th>...</th>\n",
       "      <td>...</td>\n",
       "      <td>...</td>\n",
       "      <td>...</td>\n",
       "      <td>...</td>\n",
       "      <td>...</td>\n",
       "      <td>...</td>\n",
       "      <td>...</td>\n",
       "      <td>...</td>\n",
       "      <td>...</td>\n",
       "    </tr>\n",
       "    <tr>\n",
       "      <th>189122</th>\n",
       "      <td>EFHK</td>\n",
       "      <td>2021-12-03 08:20:00</td>\n",
       "      <td>-12.0</td>\n",
       "      <td>6000</td>\n",
       "      <td>9999</td>\n",
       "      <td>700</td>\n",
       "      <td>700</td>\n",
       "      <td>False</td>\n",
       "      <td>EFHK 030820Z 01008KT 6000 -SN BKN007 M12/M14 Q...</td>\n",
       "    </tr>\n",
       "    <tr>\n",
       "      <th>189123</th>\n",
       "      <td>EFHK</td>\n",
       "      <td>2021-12-03 08:50:00</td>\n",
       "      <td>-12.0</td>\n",
       "      <td>7000</td>\n",
       "      <td>9999</td>\n",
       "      <td>9999</td>\n",
       "      <td>400</td>\n",
       "      <td>False</td>\n",
       "      <td>EFHK 030850Z 35006KT 7000 -SN FEW004 SCT007 M1...</td>\n",
       "    </tr>\n",
       "    <tr>\n",
       "      <th>189124</th>\n",
       "      <td>EFHK</td>\n",
       "      <td>2021-12-03 09:20:00</td>\n",
       "      <td>-12.0</td>\n",
       "      <td>9000</td>\n",
       "      <td>9999</td>\n",
       "      <td>9999</td>\n",
       "      <td>400</td>\n",
       "      <td>False</td>\n",
       "      <td>EFHK 030920Z 36007KT 9000 -SN FEW004 M12/M13 Q...</td>\n",
       "    </tr>\n",
       "    <tr>\n",
       "      <th>189125</th>\n",
       "      <td>EFHK</td>\n",
       "      <td>2021-12-03 09:50:00</td>\n",
       "      <td>-12.0</td>\n",
       "      <td>10000</td>\n",
       "      <td>9999</td>\n",
       "      <td>9999</td>\n",
       "      <td>400</td>\n",
       "      <td>False</td>\n",
       "      <td>EFHK 030950Z 36008KT 9999 -SN FEW004 SCT022 M1...</td>\n",
       "    </tr>\n",
       "    <tr>\n",
       "      <th>189126</th>\n",
       "      <td>EFHK</td>\n",
       "      <td>2021-12-03 10:20:00</td>\n",
       "      <td>-12.0</td>\n",
       "      <td>10000</td>\n",
       "      <td>9999</td>\n",
       "      <td>2300</td>\n",
       "      <td>2300</td>\n",
       "      <td>False</td>\n",
       "      <td>EFHK 031020Z 01010KT 9999 -SN BKN023 M12/M14 Q...</td>\n",
       "    </tr>\n",
       "  </tbody>\n",
       "</table>\n",
       "<p>189127 rows × 9 columns</p>\n",
       "</div>"
      ],
      "text/plain": [
       "        icao                 time  temp    vis   rvr  ceil  base  night  \\\n",
       "0       EFHK  2011-01-01 00:20:00  -2.0  10000  9999   600   600   True   \n",
       "1       EFHK  2011-01-01 00:50:00  -2.0  10000  9999   600   600   True   \n",
       "2       EFHK  2011-01-01 01:20:00  -2.0  10000  9999   700   700   True   \n",
       "3       EFHK  2011-01-01 01:50:00  -2.0  10000  9999   700   700   True   \n",
       "4       EFHK  2011-01-01 02:20:00  -3.0  10000  9999   500   500   True   \n",
       "...      ...                  ...   ...    ...   ...   ...   ...    ...   \n",
       "189122  EFHK  2021-12-03 08:20:00 -12.0   6000  9999   700   700  False   \n",
       "189123  EFHK  2021-12-03 08:50:00 -12.0   7000  9999  9999   400  False   \n",
       "189124  EFHK  2021-12-03 09:20:00 -12.0   9000  9999  9999   400  False   \n",
       "189125  EFHK  2021-12-03 09:50:00 -12.0  10000  9999  9999   400  False   \n",
       "189126  EFHK  2021-12-03 10:20:00 -12.0  10000  9999  2300  2300  False   \n",
       "\n",
       "                                                metar_msg  \n",
       "0       EFHK 010020Z 15010KT 9999 -SG BKN006 M02/M03 Q...  \n",
       "1       EFHK 010050Z 14009KT 9999 BKN006 M02/M03 Q0993...  \n",
       "2       EFHK 010120Z 15010KT 9999 BKN007 BKN032 M02/M0...  \n",
       "3       EFHK 010150Z 14010KT 9999 BKN007 BKN025 M02/M0...  \n",
       "4       EFHK 010220Z 13011KT 9999 BKN005 M03/M04 Q0992...  \n",
       "...                                                   ...  \n",
       "189122  EFHK 030820Z 01008KT 6000 -SN BKN007 M12/M14 Q...  \n",
       "189123  EFHK 030850Z 35006KT 7000 -SN FEW004 SCT007 M1...  \n",
       "189124  EFHK 030920Z 36007KT 9000 -SN FEW004 M12/M13 Q...  \n",
       "189125  EFHK 030950Z 36008KT 9999 -SN FEW004 SCT022 M1...  \n",
       "189126  EFHK 031020Z 01010KT 9999 -SN BKN023 M12/M14 Q...  \n",
       "\n",
       "[189127 rows x 9 columns]"
      ]
     },
     "execution_count": 20,
     "metadata": {},
     "output_type": "execute_result"
    }
   ],
   "source": [
    "metar"
   ]
  },
  {
   "cell_type": "code",
   "execution_count": 21,
   "metadata": {},
   "outputs": [
    {
     "data": {
      "text/html": [
       "<div>\n",
       "<style scoped>\n",
       "    .dataframe tbody tr th:only-of-type {\n",
       "        vertical-align: middle;\n",
       "    }\n",
       "\n",
       "    .dataframe tbody tr th {\n",
       "        vertical-align: top;\n",
       "    }\n",
       "\n",
       "    .dataframe thead th {\n",
       "        text-align: right;\n",
       "    }\n",
       "</style>\n",
       "<table border=\"1\" class=\"dataframe\">\n",
       "  <thead>\n",
       "    <tr style=\"text-align: right;\">\n",
       "      <th></th>\n",
       "      <th>icao</th>\n",
       "      <th>time</th>\n",
       "      <th>taf_vis</th>\n",
       "      <th>taf_msg</th>\n",
       "    </tr>\n",
       "  </thead>\n",
       "  <tbody>\n",
       "    <tr>\n",
       "      <th>0</th>\n",
       "      <td>EFHK</td>\n",
       "      <td>2011-01-01 00:00:00</td>\n",
       "      <td>3000.0</td>\n",
       "      <td>EFHK 312340Z 0100/0124 11007KT 9999 SCT004 BKN...</td>\n",
       "    </tr>\n",
       "    <tr>\n",
       "      <th>1</th>\n",
       "      <td>EFHK</td>\n",
       "      <td>2011-01-01 00:10:00</td>\n",
       "      <td>3000.0</td>\n",
       "      <td>EFHK 312340Z 0100/0124 11007KT 9999 SCT004 BKN...</td>\n",
       "    </tr>\n",
       "    <tr>\n",
       "      <th>2</th>\n",
       "      <td>EFHK</td>\n",
       "      <td>2011-01-01 00:20:00</td>\n",
       "      <td>3000.0</td>\n",
       "      <td>EFHK 312340Z 0100/0124 11007KT 9999 SCT004 BKN...</td>\n",
       "    </tr>\n",
       "    <tr>\n",
       "      <th>3</th>\n",
       "      <td>EFHK</td>\n",
       "      <td>2011-01-01 00:30:00</td>\n",
       "      <td>3000.0</td>\n",
       "      <td>EFHK 312340Z 0100/0124 11007KT 9999 SCT004 BKN...</td>\n",
       "    </tr>\n",
       "    <tr>\n",
       "      <th>4</th>\n",
       "      <td>EFHK</td>\n",
       "      <td>2011-01-01 00:40:00</td>\n",
       "      <td>3000.0</td>\n",
       "      <td>EFHK 312340Z 0100/0124 11007KT 9999 SCT004 BKN...</td>\n",
       "    </tr>\n",
       "    <tr>\n",
       "      <th>...</th>\n",
       "      <td>...</td>\n",
       "      <td>...</td>\n",
       "      <td>...</td>\n",
       "      <td>...</td>\n",
       "    </tr>\n",
       "    <tr>\n",
       "      <th>570143</th>\n",
       "      <td>EFHK</td>\n",
       "      <td>2021-12-08 13:20:00</td>\n",
       "      <td>2000.0</td>\n",
       "      <td>EFHK 081137Z 0812/0912 32003KT 9999 FEW001 PRO...</td>\n",
       "    </tr>\n",
       "    <tr>\n",
       "      <th>570144</th>\n",
       "      <td>EFHK</td>\n",
       "      <td>2021-12-08 13:30:00</td>\n",
       "      <td>2000.0</td>\n",
       "      <td>EFHK 081137Z 0812/0912 32003KT 9999 FEW001 PRO...</td>\n",
       "    </tr>\n",
       "    <tr>\n",
       "      <th>570145</th>\n",
       "      <td>EFHK</td>\n",
       "      <td>2021-12-08 13:40:00</td>\n",
       "      <td>2000.0</td>\n",
       "      <td>EFHK 081137Z 0812/0912 32003KT 9999 FEW001 PRO...</td>\n",
       "    </tr>\n",
       "    <tr>\n",
       "      <th>570146</th>\n",
       "      <td>EFHK</td>\n",
       "      <td>2021-12-08 13:50:00</td>\n",
       "      <td>2000.0</td>\n",
       "      <td>EFHK 081137Z 0812/0912 32003KT 9999 FEW001 PRO...</td>\n",
       "    </tr>\n",
       "    <tr>\n",
       "      <th>570147</th>\n",
       "      <td>EFHK</td>\n",
       "      <td>2021-12-08 14:00:00</td>\n",
       "      <td>2000.0</td>\n",
       "      <td>EFHK 081137Z 0812/0912 32003KT 9999 FEW001 PRO...</td>\n",
       "    </tr>\n",
       "  </tbody>\n",
       "</table>\n",
       "<p>570148 rows × 4 columns</p>\n",
       "</div>"
      ],
      "text/plain": [
       "        icao                 time  taf_vis  \\\n",
       "0       EFHK  2011-01-01 00:00:00   3000.0   \n",
       "1       EFHK  2011-01-01 00:10:00   3000.0   \n",
       "2       EFHK  2011-01-01 00:20:00   3000.0   \n",
       "3       EFHK  2011-01-01 00:30:00   3000.0   \n",
       "4       EFHK  2011-01-01 00:40:00   3000.0   \n",
       "...      ...                  ...      ...   \n",
       "570143  EFHK  2021-12-08 13:20:00   2000.0   \n",
       "570144  EFHK  2021-12-08 13:30:00   2000.0   \n",
       "570145  EFHK  2021-12-08 13:40:00   2000.0   \n",
       "570146  EFHK  2021-12-08 13:50:00   2000.0   \n",
       "570147  EFHK  2021-12-08 14:00:00   2000.0   \n",
       "\n",
       "                                                  taf_msg  \n",
       "0       EFHK 312340Z 0100/0124 11007KT 9999 SCT004 BKN...  \n",
       "1       EFHK 312340Z 0100/0124 11007KT 9999 SCT004 BKN...  \n",
       "2       EFHK 312340Z 0100/0124 11007KT 9999 SCT004 BKN...  \n",
       "3       EFHK 312340Z 0100/0124 11007KT 9999 SCT004 BKN...  \n",
       "4       EFHK 312340Z 0100/0124 11007KT 9999 SCT004 BKN...  \n",
       "...                                                   ...  \n",
       "570143  EFHK 081137Z 0812/0912 32003KT 9999 FEW001 PRO...  \n",
       "570144  EFHK 081137Z 0812/0912 32003KT 9999 FEW001 PRO...  \n",
       "570145  EFHK 081137Z 0812/0912 32003KT 9999 FEW001 PRO...  \n",
       "570146  EFHK 081137Z 0812/0912 32003KT 9999 FEW001 PRO...  \n",
       "570147  EFHK 081137Z 0812/0912 32003KT 9999 FEW001 PRO...  \n",
       "\n",
       "[570148 rows x 4 columns]"
      ]
     },
     "execution_count": 21,
     "metadata": {},
     "output_type": "execute_result"
    }
   ],
   "source": [
    "taf"
   ]
  },
  {
   "cell_type": "code",
   "execution_count": 26,
   "metadata": {},
   "outputs": [],
   "source": [
    "con = sqlite3.connect(\"hems.sqlite\")"
   ]
  },
  {
   "cell_type": "code",
   "execution_count": null,
   "metadata": {},
   "outputs": [],
   "source": [
    "metar.to_sql(\"t_metar\", con, if_exists='append')"
   ]
  },
  {
   "cell_type": "code",
   "execution_count": 23,
   "metadata": {},
   "outputs": [],
   "source": [
    "taf.to_sql(\"t_taf\", con, if_exists='append')"
   ]
  },
  {
   "cell_type": "code",
   "execution_count": 24,
   "metadata": {},
   "outputs": [
    {
     "data": {
      "text/html": [
       "<div>\n",
       "<style scoped>\n",
       "    .dataframe tbody tr th:only-of-type {\n",
       "        vertical-align: middle;\n",
       "    }\n",
       "\n",
       "    .dataframe tbody tr th {\n",
       "        vertical-align: top;\n",
       "    }\n",
       "\n",
       "    .dataframe thead th {\n",
       "        text-align: right;\n",
       "    }\n",
       "</style>\n",
       "<table border=\"1\" class=\"dataframe\">\n",
       "  <thead>\n",
       "    <tr style=\"text-align: right;\">\n",
       "      <th></th>\n",
       "      <th>icao</th>\n",
       "      <th>time</th>\n",
       "      <th>temp</th>\n",
       "      <th>vis</th>\n",
       "      <th>rvr</th>\n",
       "      <th>ceil</th>\n",
       "      <th>base</th>\n",
       "      <th>night</th>\n",
       "      <th>metar_msg</th>\n",
       "    </tr>\n",
       "  </thead>\n",
       "  <tbody>\n",
       "    <tr>\n",
       "      <th>0</th>\n",
       "      <td>EFHK</td>\n",
       "      <td>2011-01-01 00:20:00</td>\n",
       "      <td>-2.0</td>\n",
       "      <td>10000</td>\n",
       "      <td>9999</td>\n",
       "      <td>600</td>\n",
       "      <td>600</td>\n",
       "      <td>True</td>\n",
       "      <td>EFHK 010020Z 15010KT 9999 -SG BKN006 M02/M03 Q...</td>\n",
       "    </tr>\n",
       "    <tr>\n",
       "      <th>1</th>\n",
       "      <td>EFHK</td>\n",
       "      <td>2011-01-01 00:50:00</td>\n",
       "      <td>-2.0</td>\n",
       "      <td>10000</td>\n",
       "      <td>9999</td>\n",
       "      <td>600</td>\n",
       "      <td>600</td>\n",
       "      <td>True</td>\n",
       "      <td>EFHK 010050Z 14009KT 9999 BKN006 M02/M03 Q0993...</td>\n",
       "    </tr>\n",
       "    <tr>\n",
       "      <th>2</th>\n",
       "      <td>EFHK</td>\n",
       "      <td>2011-01-01 01:20:00</td>\n",
       "      <td>-2.0</td>\n",
       "      <td>10000</td>\n",
       "      <td>9999</td>\n",
       "      <td>700</td>\n",
       "      <td>700</td>\n",
       "      <td>True</td>\n",
       "      <td>EFHK 010120Z 15010KT 9999 BKN007 BKN032 M02/M0...</td>\n",
       "    </tr>\n",
       "    <tr>\n",
       "      <th>3</th>\n",
       "      <td>EFHK</td>\n",
       "      <td>2011-01-01 01:50:00</td>\n",
       "      <td>-2.0</td>\n",
       "      <td>10000</td>\n",
       "      <td>9999</td>\n",
       "      <td>700</td>\n",
       "      <td>700</td>\n",
       "      <td>True</td>\n",
       "      <td>EFHK 010150Z 14010KT 9999 BKN007 BKN025 M02/M0...</td>\n",
       "    </tr>\n",
       "    <tr>\n",
       "      <th>4</th>\n",
       "      <td>EFHK</td>\n",
       "      <td>2011-01-01 02:20:00</td>\n",
       "      <td>-3.0</td>\n",
       "      <td>10000</td>\n",
       "      <td>9999</td>\n",
       "      <td>500</td>\n",
       "      <td>500</td>\n",
       "      <td>True</td>\n",
       "      <td>EFHK 010220Z 13011KT 9999 BKN005 M03/M04 Q0992...</td>\n",
       "    </tr>\n",
       "    <tr>\n",
       "      <th>...</th>\n",
       "      <td>...</td>\n",
       "      <td>...</td>\n",
       "      <td>...</td>\n",
       "      <td>...</td>\n",
       "      <td>...</td>\n",
       "      <td>...</td>\n",
       "      <td>...</td>\n",
       "      <td>...</td>\n",
       "      <td>...</td>\n",
       "    </tr>\n",
       "    <tr>\n",
       "      <th>189122</th>\n",
       "      <td>EFHK</td>\n",
       "      <td>2021-12-03 08:20:00</td>\n",
       "      <td>-12.0</td>\n",
       "      <td>6000</td>\n",
       "      <td>9999</td>\n",
       "      <td>700</td>\n",
       "      <td>700</td>\n",
       "      <td>False</td>\n",
       "      <td>EFHK 030820Z 01008KT 6000 -SN BKN007 M12/M14 Q...</td>\n",
       "    </tr>\n",
       "    <tr>\n",
       "      <th>189123</th>\n",
       "      <td>EFHK</td>\n",
       "      <td>2021-12-03 08:50:00</td>\n",
       "      <td>-12.0</td>\n",
       "      <td>7000</td>\n",
       "      <td>9999</td>\n",
       "      <td>9999</td>\n",
       "      <td>400</td>\n",
       "      <td>False</td>\n",
       "      <td>EFHK 030850Z 35006KT 7000 -SN FEW004 SCT007 M1...</td>\n",
       "    </tr>\n",
       "    <tr>\n",
       "      <th>189124</th>\n",
       "      <td>EFHK</td>\n",
       "      <td>2021-12-03 09:20:00</td>\n",
       "      <td>-12.0</td>\n",
       "      <td>9000</td>\n",
       "      <td>9999</td>\n",
       "      <td>9999</td>\n",
       "      <td>400</td>\n",
       "      <td>False</td>\n",
       "      <td>EFHK 030920Z 36007KT 9000 -SN FEW004 M12/M13 Q...</td>\n",
       "    </tr>\n",
       "    <tr>\n",
       "      <th>189125</th>\n",
       "      <td>EFHK</td>\n",
       "      <td>2021-12-03 09:50:00</td>\n",
       "      <td>-12.0</td>\n",
       "      <td>10000</td>\n",
       "      <td>9999</td>\n",
       "      <td>9999</td>\n",
       "      <td>400</td>\n",
       "      <td>False</td>\n",
       "      <td>EFHK 030950Z 36008KT 9999 -SN FEW004 SCT022 M1...</td>\n",
       "    </tr>\n",
       "    <tr>\n",
       "      <th>189126</th>\n",
       "      <td>EFHK</td>\n",
       "      <td>2021-12-03 10:20:00</td>\n",
       "      <td>-12.0</td>\n",
       "      <td>10000</td>\n",
       "      <td>9999</td>\n",
       "      <td>2300</td>\n",
       "      <td>2300</td>\n",
       "      <td>False</td>\n",
       "      <td>EFHK 031020Z 01010KT 9999 -SN BKN023 M12/M14 Q...</td>\n",
       "    </tr>\n",
       "  </tbody>\n",
       "</table>\n",
       "<p>189127 rows × 9 columns</p>\n",
       "</div>"
      ],
      "text/plain": [
       "        icao                 time  temp    vis   rvr  ceil  base  night  \\\n",
       "0       EFHK  2011-01-01 00:20:00  -2.0  10000  9999   600   600   True   \n",
       "1       EFHK  2011-01-01 00:50:00  -2.0  10000  9999   600   600   True   \n",
       "2       EFHK  2011-01-01 01:20:00  -2.0  10000  9999   700   700   True   \n",
       "3       EFHK  2011-01-01 01:50:00  -2.0  10000  9999   700   700   True   \n",
       "4       EFHK  2011-01-01 02:20:00  -3.0  10000  9999   500   500   True   \n",
       "...      ...                  ...   ...    ...   ...   ...   ...    ...   \n",
       "189122  EFHK  2021-12-03 08:20:00 -12.0   6000  9999   700   700  False   \n",
       "189123  EFHK  2021-12-03 08:50:00 -12.0   7000  9999  9999   400  False   \n",
       "189124  EFHK  2021-12-03 09:20:00 -12.0   9000  9999  9999   400  False   \n",
       "189125  EFHK  2021-12-03 09:50:00 -12.0  10000  9999  9999   400  False   \n",
       "189126  EFHK  2021-12-03 10:20:00 -12.0  10000  9999  2300  2300  False   \n",
       "\n",
       "                                                metar_msg  \n",
       "0       EFHK 010020Z 15010KT 9999 -SG BKN006 M02/M03 Q...  \n",
       "1       EFHK 010050Z 14009KT 9999 BKN006 M02/M03 Q0993...  \n",
       "2       EFHK 010120Z 15010KT 9999 BKN007 BKN032 M02/M0...  \n",
       "3       EFHK 010150Z 14010KT 9999 BKN007 BKN025 M02/M0...  \n",
       "4       EFHK 010220Z 13011KT 9999 BKN005 M03/M04 Q0992...  \n",
       "...                                                   ...  \n",
       "189122  EFHK 030820Z 01008KT 6000 -SN BKN007 M12/M14 Q...  \n",
       "189123  EFHK 030850Z 35006KT 7000 -SN FEW004 SCT007 M1...  \n",
       "189124  EFHK 030920Z 36007KT 9000 -SN FEW004 M12/M13 Q...  \n",
       "189125  EFHK 030950Z 36008KT 9999 -SN FEW004 SCT022 M1...  \n",
       "189126  EFHK 031020Z 01010KT 9999 -SN BKN023 M12/M14 Q...  \n",
       "\n",
       "[189127 rows x 9 columns]"
      ]
     },
     "execution_count": 24,
     "metadata": {},
     "output_type": "execute_result"
    }
   ],
   "source": [
    "metar"
   ]
  },
  {
   "cell_type": "code",
   "execution_count": 27,
   "metadata": {},
   "outputs": [],
   "source": [
    "con.close()"
   ]
  },
  {
   "cell_type": "code",
   "execution_count": 30,
   "metadata": {},
   "outputs": [
    {
     "name": "stdout",
     "output_type": "stream",
     "text": [
      "EFET\n",
      "EFHA\n",
      "EFHK\n",
      "EFIV\n",
      "EFJO\n",
      "EFJY\n",
      "EFKE\n",
      "EFKI\n",
      "EFKK\n",
      "EFKS\n",
      "EFKT\n",
      "EFKU\n",
      "EFLP\n",
      "EFMA\n",
      "EFMI\n",
      "EFOU\n",
      "EFPO\n",
      "EFRO\n",
      "EFSA\n",
      "EFSI\n",
      "EFTP\n",
      "EFTU\n",
      "EFUT\n",
      "EFVA\n",
      "ILHF\n",
      "ILIK\n",
      "ILJY\n",
      "ILKA\n",
      "ILKM\n",
      "ILMI\n",
      "ILPR\n",
      "ILPU\n",
      "ILQA\n",
      "ILQB\n",
      "ILQC\n",
      "ILQD\n",
      "ILQE\n",
      "ILQF\n",
      "ILQH\n",
      "ILQI\n",
      "ILQJ\n",
      "ILQK\n",
      "ILQL\n",
      "ILQM\n",
      "ILQN\n",
      "ILQO\n",
      "ILQP\n",
      "ILQQ\n",
      "ILQR\n",
      "ILQS\n",
      "ILQT\n",
      "ILQU\n",
      "ILQV\n",
      "ILQX\n",
      "ILQY\n",
      "ILRO\n",
      "ILRU\n",
      "ILWA\n",
      "ILWD\n",
      "ILWE\n",
      "ILWF\n",
      "ILWG\n",
      "ILXA\n",
      "ILXB\n",
      "ILXC\n",
      "ILXD\n",
      "ILXE\n",
      "ILXF\n",
      "ILXG\n",
      "ILXI\n",
      "ILXJ\n",
      "ILXK\n",
      "ILXL\n",
      "ILXM\n",
      "ILXN\n",
      "ILXO\n",
      "ILXP\n",
      "ILXQ\n",
      "ILXR\n",
      "ILXS\n",
      "ILXT\n",
      "ILXU\n",
      "ILXV\n",
      "ILXW\n",
      "ILXX\n",
      "ILXY\n",
      "ILXZ\n",
      "ILYL\n",
      "ILZA\n",
      "ILZB\n",
      "ILZC\n",
      "ILZD\n",
      "ILZE\n",
      "ILZF\n",
      "ILZG\n",
      "ILZH\n",
      "ILZI\n",
      "ILZJ\n",
      "ILZK\n",
      "ILZL\n",
      "ILZM\n",
      "ILZO\n",
      "ILZP\n",
      "ILZQ\n",
      "ILZR\n",
      "ILZS\n",
      "ILZT\n",
      "ILZU\n",
      "ILZV\n",
      "ILZW\n",
      "ILZX\n",
      "ILZY\n",
      "ILZZ\n"
     ]
    }
   ],
   "source": [
    "for icao in geo_df.index:\n",
    "    print(icao)"
   ]
  },
  {
   "cell_type": "code",
   "execution_count": null,
   "metadata": {},
   "outputs": [],
   "source": []
  }
 ],
 "metadata": {
  "interpreter": {
   "hash": "e2378863ffe1dcf4577d6ced90accd9caaf84e395cbb0f158c17fac025349c3a"
  },
  "kernelspec": {
   "display_name": "Python 3.10.1 64-bit ('hems': conda)",
   "language": "python",
   "name": "python3"
  },
  "language_info": {
   "codemirror_mode": {
    "name": "ipython",
    "version": 3
   },
   "file_extension": ".py",
   "mimetype": "text/x-python",
   "name": "python",
   "nbconvert_exporter": "python",
   "pygments_lexer": "ipython3",
   "version": "3.10.1"
  },
  "orig_nbformat": 4
 },
 "nbformat": 4,
 "nbformat_minor": 2
}
